<?xml version="1.0" encoding="UTF-8"?>
<kml xmlns="http://www.opengis.net/kml/2.2" xmlns:gx="http://www.google.com/kml/ext/2.2">
    <Document id="15">
        <Style id="22">
            <LineStyle id="23">
                <color>ffff0000</color>
                <colorMode>normal</colorMode>
                <width>3</width>
            </LineStyle>
            <PolyStyle id="24">
                <color>50ff0000</color>
                <colorMode>normal</colorMode>
                <fill>1</fill>
                <outline>1</outline>
            </PolyStyle>
        </Style>
        <Style id="31">
            <LineStyle id="32">
                <color>ffff0000</color>
                <colorMode>normal</colorMode>
                <width>3</width>
            </LineStyle>
            <PolyStyle id="33">
                <color>50ff0000</color>
                <colorMode>normal</colorMode>
                <fill>1</fill>
                <outline>1</outline>
            </PolyStyle>
        </Style>
        <Style id="40">
            <LineStyle id="41">
                <color>ffff0000</color>
                <colorMode>normal</colorMode>
                <width>3</width>
            </LineStyle>
            <PolyStyle id="42">
                <color>50ff0000</color>
                <colorMode>normal</colorMode>
                <fill>1</fill>
                <outline>1</outline>
            </PolyStyle>
        </Style>
        <Placemark id="17">
            <name>Impact Ellipse 1</name>
            <visibility>1</visibility>
            <styleUrl>#22</styleUrl>
            <MultiGeometry id="16">
                <Polygon id="18">
                    <outerBoundaryIs>
                        <LinearRing id="20">
                            <coordinates>-48.936716855093394,-26.30543865956321,0.0 -48.936713754028915,-26.305443010810272,0.0 -48.93670923320823,-26.305446754201903,0.0 -48.93670331047288,-26.30544987496452,0.0 -48.936696009197185,-26.305452360781732,0.0 -48.936687358195975,-26.305454201842945,0.0 -48.93667739161089,-26.30545539088209,0.0 -48.93666614877561,-26.30545592320631,0.0 -48.936653674060636,-26.305455796714465,0.0 -48.9366400166982,-26.305455011905448,0.0 -48.936625230587914,-26.305453571876217,0.0 -48.93660937408411,-26.30545148230957,0.0 -48.936592509765454,-26.30544875145174,0.0 -48.93657470418808,-26.305445390079807,0.0 -48.93655602762282,-26.305441411459267,0.0 -48.936536553777934,-26.30543683129157,0.0 -48.936516359508175,-26.30543166765225,0.0 -48.936495524511486,-26.305425940919548,0.0 -48.93647413101447,-26.305419673693997,0.0 -48.936452263447855,-26.305412890709245,0.0 -48.93643000811331,-26.305405618734433,0.0 -48.93640745284279,-26.30539788646858,0.0 -48.93638468665198,-26.30538972442727,0.0 -48.93636179938889,-26.305381164822286,0.0 -48.93633888137935,-26.305372241434426,0.0 -48.936316023070454,-26.305362989480248,0.0 -48.936293314673684,-26.305353445473038,0.0 -48.936270845808814,-26.30534364707871,0.0 -48.93624870515024,-26.305333632967194,0.0 -48.93622698007706,-26.30532344265978,0.0 -48.93620575632817,-26.30531311637316,0.0 -48.93618511766393,-26.305302694860718,0.0 -48.9361651455356,-26.305292219251665,0.0 -48.936145918763856,-26.305281730888737,0.0 -48.93612751322777,-26.30527127116502,0.0 -48.93611000156534,-26.3052608813606,0.0 -48.936093452886794,-26.30525060247962,0.0 -48.93607793250189,-26.305240475088482,0.0 -48.936063501662154,-26.305230539155694,0.0 -48.936050217319156,-26.305220833894193,0.0 -48.93603813189973,-26.30521139760653,0.0 -48.93602729309913,-26.305202267533733,0.0 -48.936017743692766,-26.305193479708308,0.0 -48.93600952136738,-26.305185068812055,0.0 -48.93600265857238,-26.30517706803915,0.0 -48.935997182391695,-26.305169508965204,0.0 -48.935993114437,-26.30516242142258,0.0 -48.93599047076232,-26.305155833382695,0.0 -48.93598926180076,-26.3051497708456,0.0 -48.9359894923233,-26.305144257737403,0.0 -48.93599116141998,-26.305139315815822,0.0 -48.935994262503456,-26.3051349645843,0.0 -48.93599878333508,-26.305131221215085,0.0 -48.93600470607312,-26.305128100481394,0.0 -48.93601200734321,-26.305125614699175,0.0 -48.93602065833062,-26.30512377367847,0.0 -48.936030624893924,-26.305122584684707,0.0 -48.93604186769979,-26.305122052410034,0.0 -48.93605434237817,-26.305122178954793,0.0 -48.93606799969743,-26.30512296381927,0.0 -48.93608278575861,-26.30512440390563,0.0 -48.93609864220818,-26.305126493530167,0.0 -48.9361155064683,-26.305129224445754,0.0 -48.93613331198379,-26.305132585874368,0.0 -48.93615198848477,-26.305136564549656,0.0 -48.93617146226401,-26.305141144769276,0.0 -48.936191656467784,-26.305146308456884,0.0 -48.936212491399196,-26.305152035233487,0.0 -48.93623388483266,-26.30515830249785,0.0 -48.93625575233846,-26.305165085515714,0.0 -48.93627800761589,-26.30517235751741,0.0 -48.93630056283387,-26.305180089803514,0.0 -48.936323328977586,-26.3051882518581,0.0 -48.93634621619974,-26.30519681146919,0.0 -48.93636913417516,-26.305205734855882,0.0 -48.936391992457274,-26.30521498680164,0.0 -48.93641470083505,-26.305224530793318,0.0 -48.93643716968899,-26.305234329165234,0.0 -48.93645931034487,-26.305244343247818,0.0 -48.936481035423654,-26.305254533520234,0.0 -48.93650225918634,-26.305264859766346,0.0 -48.93652289787236,-26.30527528123341,0.0 -48.93654287003011,-26.30528575679292,0.0 -48.93656209683844,-26.305296245102927,0.0 -48.93658050241771,-26.305306704771187,0.0 -48.936598014129245,-26.305317094518475,0.0 -48.936614562862026,-26.30532737334156,0.0 -48.93663008330545,-26.305337500674955,0.0 -48.93664451420708,-26.305347436551045,0.0 -48.93665779861436,-26.305357141757813,0.0 -48.93666988409943,-26.305366577993546,0.0 -48.93668072296601,-26.305375708018055,0.0 -48.936690272437666,-26.30538449579958,0.0 -48.936698494826594,-26.30539290665703,0.0 -48.93670535768241,-26.30540090739682,0.0 -48.936710833920216,-26.305408466443875,0.0 -48.93671490192744,-26.305415553966252,0.0 -48.93671754564922,-26.30542214199286,0.0 -48.936718754651714,-26.30542820452385,0.0 -48.9367185241633,-26.30543371763321,0.0</coordinates>
                        </LinearRing>
                    </outerBoundaryIs>
                </Polygon>
            </MultiGeometry>
        </Placemark>
        <Placemark id="26">
            <name>Impact Ellipse 2</name>
            <visibility>1</visibility>
            <styleUrl>#31</styleUrl>
            <MultiGeometry id="25">
                <Polygon id="27">
                    <outerBoundaryIs>
                        <LinearRing id="29">
                            <coordinates>-48.93707970333581,-26.30558833006761,0.0 -48.93707350122585,-26.305597032577264,0.0 -48.93706445959541,-26.305604519382936,0.0 -48.937052614127396,-26.305610760937107,0.0 -48.93703801157041,-26.305615732606533,0.0 -48.9370207095542,-26.305619414769467,0.0 -48.93700077636224,-26.30562179289314,0.0 -48.93697829066226,-26.305622857591114,0.0 -48.93695334119573,-26.305622604660346,0.0 -48.93692602642767,-26.305621035097772,0.0 -48.936896454158,-26.305618155096443,0.0 -48.93686474109614,-26.305613976021043,0.0 -48.93683101240031,-26.30560851436312,0.0 -48.93679540118367,-26.305601791675958,0.0 -48.93675804798888,-26.305593834489606,0.0 -48.93671910023346,-26.30558467420614,0.0 -48.936678711627955,-26.3055743469758,0.0 -48.93663704156929,-26.30556289355429,0.0 -48.93659425451171,-26.305550359141996,0.0 -48.93655051931767,-26.305536793205597,0.0 -48.93650600859145,-26.30552224928288,0.0 -48.936460897997904,-26.305506784771406,0.0 -48.93641536556917,-26.30549046070207,0.0 -48.93636959100206,-26.305473341498196,0.0 -48.936323754948845,-26.30545549472133,0.0 -48.93627803830429,-26.305436990804548,0.0 -48.93623262149174,-26.30541790277458,0.0 -48.93618768375106,-26.305398305963518,0.0 -48.93614340243124,-26.305378277711554,0.0 -48.936099952290476,-26.30535789706173,0.0 -48.9360575048065,-26.305337244447983,0.0 -48.936016227499806,-26.305316401377716,0.0 -48.93597628327254,-26.305295450110066,0.0 -48.93593782976565,-26.30527447333129,0.0 -48.93590101873667,-26.305253553828404,0.0 -48.9358659954609,-26.305232774162434,0.0 -48.935832898158054,-26.30521221634259,0.0 -48.93580185744678,-26.305191961502555,0.0 -48.9357729958292,-26.305172089580296,0.0 -48.93574642720746,-26.305152679002553,0.0 -48.93572225643427,-26.305133806375302,0.0 -48.93570057889906,-26.305115546181415,0.0 -48.9356814801516,-26.30509797048667,0.0 -48.93566503556439,-26.30508114865534,0.0 -48.93565131003518,-26.305065147076434,0.0 -48.93564035773095,-26.30505002890166,0.0 -48.93563222187407,-26.305035853796166,0.0 -48.93562693457182,-26.30502267770311,0.0 -48.93562451668964,-26.30501055262282,0.0 -48.93562497776885,-26.304999526407595,0.0 -48.93562831598897,-26.304989642572842,0.0 -48.935634518174936,-26.30498094012534,0.0 -48.935643559849105,-26.30497345340931,0.0 -48.935655405327864,-26.30496721197087,0.0 -48.93567000786245,-26.30496224044143,0.0 -48.935687309823464,-26.304958558440532,0.0 -48.9357072429283,-26.30495618049839,0.0 -48.93572972851062,-26.304955115998574,0.0 -48.93575467783079,-26.304955369141016,0.0 -48.935781992426115,-26.30495693892543,0.0 -48.935811564499375,-26.304959819155272,0.0 -48.93584327734428,-26.30496399846225,0.0 -48.935877005806,-26.304969460351163,0.0 -48.935912616775084,-26.304976183265087,0.0 -48.935949969712766,-26.304984140670395,0.0 -48.935988917205606,-26.304993301161556,0.0 -48.93602930554717,-26.30500362858507,0.0 -48.936070975344705,-26.305015082182173,0.0 -48.93611376214809,-26.305027616749705,0.0 -48.93615749709887,-26.305041182818538,0.0 -48.93620200759661,-26.30505572684882,0.0 -48.93624711798006,-26.30507119144127,0.0 -48.93629265022039,-26.30508751556372,0.0 -48.936338424623756,-26.305104634792013,0.0 -48.93638426054047,-26.305122481564222,0.0 -48.93642997707793,-26.30514098544733,0.0 -48.93647539381447,-26.30516007341515,0.0 -48.936520331511424,-26.305179670136567,0.0 -48.936564612820504,-26.30519969827281,0.0 -48.936608062983666,-26.305220078782646,0.0 -48.936650510522846,-26.305240731234356,0.0 -48.93669178791665,-26.305261574123094,0.0 -48.93673173226158,-26.305282525192577,0.0 -48.936770185914824,-26.30530350175968,0.0 -48.93680699711655,-26.30532442104073,0.0 -48.93684202058871,-26.305345200478186,0.0 -48.936875118108524,-26.305365758066458,0.0 -48.936906159053905,-26.305386012675505,0.0 -48.936935020919044,-26.305405884370998,0.0 -48.93696158979788,-26.305425294729783,0.0 -48.936985760833664,-26.30544416714933,0.0 -48.93700743863282,-26.305462427150047,0.0 -48.9370265376414,-26.30548000266921,0.0 -48.93704298248281,-26.30549682434529,0.0 -48.93705670825527,-26.305512825791755,0.0 -48.93706766078798,-26.305527943858976,0.0 -48.93707579685496,-26.305542118883498,0.0 -48.93708108434563,-26.305555294923437,0.0 -48.937083502391545,-26.305567419979305,0.0 -48.93708304144883,-26.30557844619919,0.0</coordinates>
                        </LinearRing>
                    </outerBoundaryIs>
                </Polygon>
            </MultiGeometry>
        </Placemark>
        <Placemark id="35">
            <name>Impact Ellipse 3</name>
            <visibility>1</visibility>
            <styleUrl>#40</styleUrl>
            <MultiGeometry id="34">
                <Polygon id="36">
                    <outerBoundaryIs>
                        <LinearRing id="38">
                            <coordinates>-48.937442552515364,-26.305737999659137,0.0 -48.93743324937894,-26.30575105344691,0.0 -48.93741968694966,-26.30576228368904,0.0 -48.937401918751675,-26.3057716460637,0.0 -48.937380014907795,-26.305779103620328,0.0 -48.93735406186278,-26.305784626925494,0.0 -48.93732416204218,-26.305788194179087,0.0 -48.937290433448084,-26.305789791300356,0.0 -48.93725300919341,-26.305789411983575,0.0 -48.93721203697654,-26.30578705772291,0.0 -48.93716767849839,-26.305782737806606,0.0 -48.937120108824224,-26.305776469280353,0.0 -48.937069515692706,-26.305768276880084,0.0 -48.93701609877491,-26.305758192934384,0.0 -48.936960068886314,-26.30574625723697,0.0 -48.936901647154706,-26.305732516889666,0.0 -48.93684106414746,-26.305717026116582,0.0 -48.93677855896154,-26.305699846050164,0.0 -48.936714378279845,-26.305681044489944,0.0 -48.93664877539757,-26.305660695635016,0.0 -48.936582009222555,-26.305638879791267,0.0 -48.93651434325345,-26.305615683054427,0.0 -48.936446044539686,-26.30559119697034,0.0 -48.93637738262762,-26.30556551817369,0.0 -48.93630862849661,-26.30553874800663,0.0 -48.93624005348962,-26.305510992118847,0.0 -48.93617192824229,-26.30548236005059,0.0 -48.93610452161488,-26.30545296480038,0.0 -48.93603809963111,-26.30542292237903,0.0 -48.93597292442837,-26.3053923513518,0.0 -48.9359092532231,-26.30536137237042,0.0 -48.935847337295726,-26.30533010769694,0.0 -48.935787420998956,-26.305298680721155,0.0 -48.935729740793505,-26.305267215473613,0.0 -48.93567452431481,-26.305235836136095,0.0 -48.93562198947481,-26.305204666551457,0.0 -48.935572343601905,-26.305173829734844,0.0 -48.93552578262278,-26.30514344738817,0.0 -48.93548249028924,-26.30511363941975,0.0 -48.93544263745305,-26.305084523471027,0.0 -48.93540638139173,-26.30505621445227,0.0 -48.93537386518789,-26.305028824088993,0.0 -48.93534521716464,-26.30500246048103,0.0 -48.93532055037913,-26.304977227675828,0.0 -48.93529996217655,-26.304953225257808,0.0 -48.93528353380588,-26.30493054795531,0.0 -48.93527133009935,-26.304909285266707,0.0 -48.935263399216616,-26.3048895211072,0.0 -48.935259772454756,-26.30487133347761,0.0 -48.93526046412475,-26.304854794156526,0.0 -48.93526547149509,-26.304839968417017,0.0 -48.93527477480254,-26.304826914769073,0.0 -48.935288337330185,-26.30481568472864,0.0 -48.93530610555236,-26.30480632261437,0.0 -48.93532800934583,-26.304798865372714,0.0 -48.93535396226666,-26.304793342432127,0.0 -48.93538386189125,-26.304789775586986,0.0 -48.93541759022061,-26.30478817891158,0.0 -48.93545501414598,-26.304788558704622,0.0 -48.93549598597418,-26.304790913464423,0.0 -48.93554034401043,-26.30479523389488,0.0 -48.93558791319642,-26.30480150294218,0.0 -48.93563850580121,-26.30480969586218,0.0 -48.93569192216199,-26.304819780318095,0.0 -48.935747951472116,-26.304831716508165,0.0 -48.935806372612895,-26.3048454573228,0.0 -48.93586695502627,-26.3048609485305,0.0 -48.93592945962465,-26.304878128992,0.0 -48.935993639734406,-26.304896930901513,0.0 -48.936059242069355,-26.304917280054433,0.0 -48.93612600773029,-26.30493909614019,0.0 -48.936193673226676,-26.304962293059223,0.0 -48.936261971516515,-26.304986779262823,0.0 -48.93633063306016,-26.305012458114415,0.0 -48.93639938688406,-26.30503922827098,0.0 -48.93646796165008,-26.305066984083012,0.0 -48.93653608672638,-26.30509561601144,0.0 -48.936603493255426,-26.305125011059957,0.0 -48.936669915215006,-26.30515505322091,0.0 -48.936735090468154,-26.305185623933177,0.0 -48.93679876179761,-26.305216602549976,0.0 -48.936860677921,-26.30524786681501,0.0 -48.9369205944825,-26.305279293344928,0.0 -48.93697827501727,-26.30531075811621,0.0 -48.93703349188462,-26.305342136954586,0.0 -48.93708602716652,-26.30537330602508,0.0 -48.9371356735276,-26.30540414232064,0.0 -48.93718223503346,-26.305434524147586,0.0 -48.93722552792401,-26.30546433160579,0.0 -48.937265381338676,-26.305493447061856,0.0 -48.93730163799083,-26.305521755613288,0.0 -48.93733415478853,-26.305549145541935,0.0 -48.937362803399324,-26.305575508754817,0.0 -48.93738747075676,-26.305600741210732,0.0 -48.93740805950667,-26.305624743330757,0.0 -48.93742448839143,-26.305647420391256,0.0 -48.937436692570685,-26.30566868289766,0.0 -48.93744462387733,-26.305688446937655,0.0 -48.93744825100762,-26.3057066345123,0.0 -48.93744755964474,-26.30572317384388,0.0</coordinates>
                        </LinearRing>
                    </outerBoundaryIs>
                </Polygon>
            </MultiGeometry>
        </Placemark>
        <Placemark id="44">
            <name>Launch Pad</name>
            <description>Flight initial position</description>
            <Point id="43">
                <coordinates>-48.936049614389546,-26.30530456662508,0.0</coordinates>
            </Point>
        </Placemark>
    </Document>
</kml>
