<?xml version="1.0" encoding="UTF-8"?>
<kml xmlns="http://www.opengis.net/kml/2.2" xmlns:gx="http://www.google.com/kml/ext/2.2">
    <Document id="15">
        <Style id="22">
            <LineStyle id="23">
                <color>ffff0000</color>
                <colorMode>normal</colorMode>
                <width>3</width>
            </LineStyle>
            <PolyStyle id="24">
                <color>50ff0000</color>
                <colorMode>normal</colorMode>
                <fill>1</fill>
                <outline>1</outline>
            </PolyStyle>
        </Style>
        <Style id="31">
            <LineStyle id="32">
                <color>ffff0000</color>
                <colorMode>normal</colorMode>
                <width>3</width>
            </LineStyle>
            <PolyStyle id="33">
                <color>50ff0000</color>
                <colorMode>normal</colorMode>
                <fill>1</fill>
                <outline>1</outline>
            </PolyStyle>
        </Style>
        <Style id="40">
            <LineStyle id="41">
                <color>ffff0000</color>
                <colorMode>normal</colorMode>
                <width>3</width>
            </LineStyle>
            <PolyStyle id="42">
                <color>50ff0000</color>
                <colorMode>normal</colorMode>
                <fill>1</fill>
                <outline>1</outline>
            </PolyStyle>
        </Style>
        <Placemark id="17">
            <name>Impact Ellipse 1</name>
            <visibility>1</visibility>
            <styleUrl>#22</styleUrl>
            <MultiGeometry id="16">
                <Polygon id="18">
                    <outerBoundaryIs>
                        <LinearRing id="20">
                            <coordinates>-48.93677887176303,-26.305465945386096,0.0 -48.93677570004543,-26.305470580068025,0.0 -48.93677113262661,-26.305474628711533,0.0 -48.936765187532,-26.305478075338335,0.0 -48.93675788822414,-26.30548090634601,0.0 -48.9367492635101,-26.305483110561656,0.0 -48.93673934742773,-26.30548467928601,0.0 -48.93672817911141,-26.305485606327768,0.0 -48.93671580263752,-26.30548588802803,0.0 -48.93670226685057,-26.305485523274754,0.0 -48.93668762517033,-26.305484513507142,0.0 -48.93667193538112,-26.30548286270995,0.0 -48.93665525940367,-26.30548057739779,0.0 -48.93663766305076,-26.305477666589418,0.0 -48.93661921576752,-26.305474141772137,0.0 -48.936599990357294,-26.305470016856486,0.0 -48.93658006269438,-26.305465308121313,0.0 -48.93655951142454,-26.305460034149586,0.0 -48.9365384176546,-26.305454215755,0.0 -48.93651686463243,-26.305447875899887,0.0 -48.93649493741829,-26.305441039604567,0.0 -48.93647272254921,-26.305433733848638,0.0 -48.93645030769745,-26.305425987464456,0.0 -48.936427781324454,-26.30541783102339,0.0 -48.936405232331786,-26.30540929671515,0.0 -48.93638274971019,-26.305400418220774,0.0 -48.93636042218851,-26.305391230579666,0.0 -48.93633833788336,-26.305381770051344,0.0 -48.936316583951495,-26.30537207397232,0.0 -48.93629524624577,-26.305362180608753,0.0 -48.936274408976345,-26.305352129005446,0.0 -48.93625415437833,-26.305341958831715,0.0 -48.93623456238726,-26.305331710224834,0.0 -48.936215710323616,-26.305321423631682,0.0 -48.93619767258769,-26.305311139649028,0.0 -48.93618052036594,-26.305300898863386,0.0 -48.93616432135008,-26.30529074169078,0.0 -48.936149139469926,-26.305280708217257,0.0 -48.93613503464109,-26.30527083804069,0.0 -48.93612206252853,-26.305261170114484,0.0 -48.936110274326914,-26.305251742593818,0.0 -48.93609971655849,-26.30524259268514,0.0 -48.93609043088958,-26.3052337564992,0.0 -48.936082453966094,-26.305225268908654,0.0 -48.93607581726894,-26.305217163410354,0.0 -48.93607054698979,-26.30520947199319,0.0 -48.93606666392769,-26.30520222501183,0.0 -48.936064183407,-26.3051954510669,0.0 -48.93606311521692,-26.305189176892146,0.0 -48.93606346357288,-26.305183427248895,0.0 -48.93606522709986,-26.30517822482835,0.0 -48.93606839883786,-26.305173590162045,0.0 -48.93607296626937,-26.305169541540792,0.0 -48.93607891136874,-26.305166094942518,0.0 -48.93608621067335,-26.30516326396921,0.0 -48.93609483537621,-26.30516105979321,0.0 -48.93610475143961,-26.305159491113177,0.0 -48.936115919729495,-26.305158564119694,0.0 -48.93612829616988,-26.30515828247091,0.0 -48.93614183191682,-26.30515864727805,0.0 -48.93615647355113,-26.30515965710107,0.0 -48.93617216328925,-26.305161307954336,0.0 -48.93618883921124,-26.305163593322355,0.0 -48.93620643550519,-26.305166504185486,0.0 -48.93622488272692,-26.305170029055564,0.0 -48.93624410807403,-26.30517415402122,0.0 -48.93626403567323,-26.30517886280281,0.0 -48.93628458687978,-26.30518413681664,0.0 -48.93630568058781,-26.305189955248352,0.0 -48.93632723355047,-26.305196295135023,0.0 -48.936349160708424,-26.305203131455833,0.0 -48.9363713755255,-26.3052104372308,0.0 -48.93639379033031,-26.30521818362725,0.0 -48.93641631666211,-26.30522634007363,0.0 -48.936438865620005,-26.30523487438013,0.0 -48.936461348213776,-26.305243752865756,0.0 -48.93648367571505,-26.305252940491243,0.0 -48.93650576000751,-26.305262400997318,0.0 -48.93652751393462,-26.3052720970478,0.0 -48.936548851643586,-26.305281990377,0.0 -48.93656968892421,-26.305292041940664,0.0 -48.93658994354119,-26.305302212070085,0.0 -48.936609535558695,-26.30531246062868,0.0 -48.93662838765584,-26.305322747170365,0.0 -48.93664642543179,-26.305333031099146,0.0 -48.93666357769946,-26.30534327182938,0.0 -48.93667977676641,-26.305353428945914,0.0 -48.936694958702034,-26.305363462363573,0.0 -48.936709063589824,-26.30537333248538,0.0 -48.936722035763886,-26.3053830003588,0.0 -48.93673382402862,-26.30539242782945,0.0 -48.936744381860755,-26.305401577691722,0.0 -48.936753667592974,-26.305410413835556,0.0 -48.93676164457835,-26.30541890138898,0.0 -48.93676828133501,-26.30542700685572,0.0 -48.93677355167036,-26.30543469824738,0.0 -48.93677743478445,-26.305441945209708,0.0 -48.936779915352105,-26.305448719142376,0.0 -48.93678098358338,-26.305454993311823,0.0 -48.936780635262195,-26.30546074295681,0.0</coordinates>
                        </LinearRing>
                    </outerBoundaryIs>
                </Polygon>
            </MultiGeometry>
        </Placemark>
        <Placemark id="26">
            <name>Impact Ellipse 2</name>
            <visibility>1</visibility>
            <styleUrl>#31</styleUrl>
            <MultiGeometry id="25">
                <Polygon id="27">
                    <outerBoundaryIs>
                        <LinearRing id="29">
                            <coordinates>-48.93713569542331,-26.30560980434076,0.0 -48.93712935200853,-26.305619073720244,0.0 -48.937120217183576,-26.305627171029514,0.0 -48.93710832699911,-26.305634064311665,0.0 -48.93709372838016,-26.30563972636137,0.0 -48.937076478940874,-26.305644134832313,0.0 -48.93705664675718,-26.305647272325327,0.0 -48.93703431009809,-26.305649126457116,0.0 -48.93700955711682,-26.30564968990912,0.0 -48.93698248550288,-26.305648960456445,0.0 -48.93695320209649,-26.305646940976622,0.0 -48.93692182246698,-26.30564363943832,0.0 -48.936888470456616,-26.30563906886986,0.0 -48.93685327769184,-26.305633247307874,0.0 -48.936816383063835,-26.30562619772611,0.0 -48.93677793218028,-26.305617947944803,0.0 -48.936738076790746,-26.30560853052088,0.0 -48.936696974187754,-26.305597982619528,0.0 -48.936654786586,-26.305586345867482,0.0 -48.93661168048212,-26.305573666188817,0.0 -48.93656782599765,-26.305559993623685,0.0 -48.93652339620751,-26.305545382130852,0.0 -48.93647856645702,-26.305529889374753,0.0 -48.93643351366984,-26.305513576497926,0.0 -48.93638841564971,-26.30549650787972,0.0 -48.93634345037873,-26.305478750882216,0.0 -48.93629879531494,-26.305460375584378,0.0 -48.93625462669196,-26.305441454505477,0.0 -48.93621111882348,-26.305422062318897,0.0 -48.93616844341527,-26.30540227555741,0.0 -48.936126768887604,-26.305382172311138,0.0 -48.93608625971053,-26.305361831919353,0.0 -48.936047075754836,-26.305341334657328,0.0 -48.936009371661044,-26.30532076141954,0.0 -48.935973296229214,-26.305300193400374,0.0 -48.935938991831634,-26.305279711773675,0.0 -48.93590659385101,-26.305259397372385,0.0 -48.93587623014616,-26.305239330369492,0.0 -48.93584802054744,-26.3052195899616,0.0 -48.93582207638386,-26.305200254056377,0.0 -48.935798500043724,-26.30518139896506,0.0 -48.935777384570585,-26.305163099101264,0.0 -48.935758813296054,-26.305145426687286,0.0 -48.93574285951098,-26.30512845146907,0.0 -48.9357295861762,-26.305112240440913,0.0 -48.93571904567409,-26.305096857581102,0.0 -48.93571127960187,-26.305082363599343,0.0 -48.935706318607444,-26.30506881569721,0.0 -48.935704182268495,-26.30505626734239,0.0 -48.93570487901518,-26.305044768057623,0.0 -48.93570840609695,-26.30503436322529,0.0 -48.93571474959337,-26.3050250939083,0.0 -48.93572388446907,-26.30501699668805,0.0 -48.93573577467257,-26.30501010352004,0.0 -48.93575037327855,-26.30500444160778,0.0 -48.935767622673076,-26.305000033295443,0.0 -48.93578745478091,-26.304996895979677,0.0 -48.93580979133424,-26.304995042040996,0.0 -48.93583454418153,-26.304994478794896,0.0 -48.93586161563538,-26.304995208463044,0.0 -48.935890898858084,-26.304997228164495,0.0 -48.93592227828322,-26.305000529927106,0.0 -48.935955630071746,-26.305005100718997,0.0 -48.935990822600694,-26.305010922500017,0.0 -48.93602771698263,-26.30501797229297,0.0 -48.936066167613745,-26.305026222274286,0.0 -48.93610602274844,-26.305035639883883,0.0 -48.93614712509823,-26.30504618795365,0.0 -48.936189312452406,-26.30505782485419,0.0 -48.93623241831821,-26.30507050465909,0.0 -48.93627627257791,-26.30508417732621,0.0 -48.936320702160096,-26.305098788895176,0.0 -48.93636553172274,-26.30511428170034,0.0 -48.93641058434514,-26.305130594598406,0.0 -48.93645568222616,-26.305147663209677,0.0 -48.936500647385884,-26.30516542017219,0.0 -48.93654530236804,-26.30518379540754,0.0 -48.93658947094028,-26.30520271639742,0.0 -48.936632978789724,-26.305222108469867,0.0 -48.9366756542109,-26.305241895093896,0.0 -48.93671732878333,-26.30526199818157,0.0 -48.93675783803625,-26.3052823383961,0.0 -48.93679702209771,-26.30530283546502,0.0 -48.93683472632547,-26.3053234084969,0.0 -48.93687080191741,-26.3053439763006,0.0 -48.93690510649867,-26.30536445770566,0.0 -48.93693750468367,-26.305384771882647,0.0 -48.93696786861037,-26.305404838662117,0.0 -48.936996078444906,-26.305424578850968,0.0 -48.937022022854556,-26.305443914545002,0.0 -48.93704559944713,-26.305462769436307,0.0 -48.937066715175106,-26.305481069114435,0.0 -48.93708528670284,-26.305498741359994,0.0 -48.9371012407355,-26.30551571642972,0.0 -48.93711451430834,-26.305531927331636,0.0 -48.93712505503523,-26.305547310089466,0.0 -48.9371328213154,-26.305561803995094,0.0 -48.93713778249768,-26.30557535184815,0.0 -48.93713991900141,-26.305587900181735,0.0 -48.93713922239383,-26.305599399473433,0.0</coordinates>
                        </LinearRing>
                    </outerBoundaryIs>
                </Polygon>
            </MultiGeometry>
        </Placemark>
        <Placemark id="35">
            <name>Impact Ellipse 3</name>
            <visibility>1</visibility>
            <styleUrl>#40</styleUrl>
            <MultiGeometry id="34">
                <Polygon id="36">
                    <outerBoundaryIs>
                        <LinearRing id="38">
                            <coordinates>-48.93749251996939,-26.305753662412616,0.0 -48.93748300487784,-26.305767566505278,0.0 -48.93746930265942,-26.305779712502563,0.0 -48.93745146738987,-26.30579005246858,0.0 -48.93742956945658,-26.305798545594698,0.0 -48.93740369528087,-26.305805158360585,0.0 -48.937373946976884,-26.305809864666575,0.0 -48.93734044194859,-26.305812645936673,0.0 -48.93730331242645,-26.305813491191902,0.0 -48.9372627049455,-26.305812397093685,0.0 -48.937218779767036,-26.305809367957067,0.0 -48.937171710246126,-26.30580441573372,0.0 -48.93712168214737,-26.305797559964823,0.0 -48.93706889291179,-26.30578882770398,0.0 -48.937013550877495,-26.305778253410534,0.0 -48.936955874457496,-26.305765878813578,0.0 -48.93689609127764,-26.30575175274733,0.0 -48.93683443727819,-26.305735930958452,0.0 -48.936771155782715,-26.30571847588607,0.0 -48.93670649653763,-26.30569945641541,0.0 -48.93664071472663,-26.305678947605962,0.0 -48.936574069963434,-26.30565703039526,0.0 -48.93650682526726,-26.30563379127951,0.0 -48.9364392460247,-26.305609321972234,0.0 -48.93637159894232,-26.30558371904233,0.0 -48.93630415099414,-26.305557083532953,0.0 -48.93623716836784,-26.305529520562757,0.0 -48.936170915414344,-26.305501138911023,0.0 -48.93610565360448,-26.305472050588353,0.0 -48.936041640497024,-26.305442370394573,0.0 -48.935979128722316,-26.305412215465694,0.0 -48.93591836498516,-26.30538170481155,0.0 -48.93585958909127,-26.3053509588461,0.0 -48.93580303300083,-26.305320098912198,0.0 -48.93574891991312,-26.305289246802648,0.0 -48.93569746338563,-26.305258524279488,0.0 -48.935648866491334,-26.305228052593446,0.0 -48.935603321017254,-26.305197952005315,0.0 -48.93556100670761,-26.305168341311337,0.0 -48.935522090554514,-26.305139337374314,0.0 -48.935486726138976,-26.30511105466234,0.0 -48.93545505302483,-26.305083604797016,0.0 -48.93542719620799,-26.305057096112897,0.0 -48.93540326562322,-26.30503163322988,0.0 -48.93538335571032,-26.305007316640314,0.0 -48.935367545041444,-26.30498424231235,0.0 -48.935355896011096,-26.30496250131116,0.0 -48.93534845458991,-26.30494217943957,0.0 -48.93534525014326,-26.30492335689938,0.0 -48.93534629531546,-26.304906107974823,0.0 -48.935351585979845,-26.304890500739443,0.0 -48.93536110125508,-26.30487659678739,0.0 -48.93537480358766,-26.304864450990397,0.0 -48.93539263890004,-26.304854111281188,0.0 -48.93541453680416,-26.304845618464345,0.0 -48.935440410879146,-26.30483900605531,0.0 -48.93547015901245,-26.30483430014813,0.0 -48.9355036638028,-26.30483151931251,0.0 -48.935540793023485,-26.304830674520588,0.0 -48.93558140014423,-26.30483176910361,0.0 -48.935625324909395,-26.304834798738902,0.0 -48.935672393970464,-26.304839751466925,0.0 -48.935722421570055,-26.304846607738547,0.0 -48.93577521027505,-26.304855340492214,0.0 -48.93583055175568,-26.304865915260834,0.0 -48.93588822760768,-26.304878290307812,0.0 -48.93594801021417,-26.304892416791834,0.0 -48.93600966364389,-26.30490823895964,0.0 -48.936072944582314,-26.304925694366137,0.0 -48.93613760329176,-26.30494471412083,0.0 -48.93620338459702,-26.30496522315975,0.0 -48.93627002889232,-26.304987140541744,0.0 -48.93633727316583,-26.305010379767896,0.0 -48.93640485203764,-26.305034849122958,0.0 -48.93647249880701,-26.305060452037264,0.0 -48.93653994650487,-26.305087087467914,0.0 -48.93660692894748,-26.305114650297494,0.0 -48.936673181786816,-26.30514303174894,0.0 -48.93673844355385,-26.305172119814802,0.0 -48.93680245669048,-26.305201799699315,0.0 -48.93686496856591,-26.30523195427134,0.0 -48.93692573247374,-26.305262464526677,0.0 -48.936984508605576,-26.30529321005764,0.0 -48.937041064997466,-26.30532406952824,0.0 -48.937095178445404,-26.30535492115298,0.0 -48.93714663538617,-26.305385643177463,0.0 -48.93719523274032,-26.30541611435883,0.0 -48.93724077871356,-26.305446214444245,0.0 -48.9372830935538,-26.305475824645388,0.0 -48.93732201026056,-26.305504828107242,0.0 -48.93735737524409,-26.305533110369197,0.0 -48.937389048931614,-26.305560559816747,0.0 -48.93741690631817,-26.305587068121937,0.0 -48.937440837459995,-26.305612530670835,0.0 -48.93746074790853,-26.305636846976366,0.0 -48.93747655908315,-26.305659921074863,0.0 -48.9374882085814,-26.305681661904757,0.0 -48.93749565042525,-26.30570198366594,0.0 -48.937498855242644,-26.305720806158355,0.0 -48.93749781038345,-26.305738055098505,0.0</coordinates>
                        </LinearRing>
                    </outerBoundaryIs>
                </Polygon>
            </MultiGeometry>
        </Placemark>
        <Placemark id="44">
            <name>Launch Pad</name>
            <description>Flight initial position</description>
            <Point id="43">
                <coordinates>-48.936049614389546,-26.30530456662508,0.0</coordinates>
            </Point>
        </Placemark>
    </Document>
</kml>
