<?xml version="1.0" encoding="UTF-8"?>
<kml xmlns="http://www.opengis.net/kml/2.2" xmlns:gx="http://www.google.com/kml/ext/2.2" xmlns:kml="http://www.opengis.net/kml/2.2" xmlns:atom="http://www.w3.org/2005/Atom">
<Document id="8">
	<open>1</open>
	<gx:CascadingStyle kml:id="__managed_style_065538AF3440CF8825AF_normal">
		<styleUrl>https://earth.google.com/balloon_components/base/1.1.0.0/card_template.kml#main</styleUrl>
		<Style>
			<IconStyle>
				<Icon>
					<href>https://earth.google.com/earth/document/icon?color=d32f2f&amp;id=2000&amp;scale=4</href>
				</Icon>
				<hotSpot x="64" y="128" xunits="pixels" yunits="insetPixels"/>
			</IconStyle>
			<LabelStyle>
			</LabelStyle>
			<LineStyle>
				<color>ff2dc0fb</color>
				<width>4</width>
			</LineStyle>
			<PolyStyle>
				<color>40ffffff</color>
			</PolyStyle>
			<BalloonStyle>
				<displayMode>hide</displayMode>
			</BalloonStyle>
		</Style>
	</gx:CascadingStyle>
	<StyleMap id="__managed_style_065538AF3440CF8825AF">
		<Pair>
			<key>normal</key>
			<styleUrl>#__managed_style_065538AF3440CF8825AF_normal</styleUrl>
		</Pair>
		<Pair>
			<key>highlight</key>
			<styleUrl>#__managed_style_065538AF3440CF8825AF_highlight</styleUrl>
		</Pair>
	</StyleMap>
	<gx:CascadingStyle kml:id="__managed_style_088CDBD0B540CF87F1D4_highlight">
		<styleUrl>https://earth.google.com/balloon_components/base/1.1.0.0/card_template.kml#main</styleUrl>
		<Style>
			<IconStyle>
				<scale>1.2</scale>
				<Icon>
					<href>https://earth.google.com/earth/document/icon?color=1976d2&amp;id=2000&amp;scale=4</href>
				</Icon>
				<hotSpot x="64" y="128" xunits="pixels" yunits="insetPixels"/>
			</IconStyle>
			<LabelStyle>
			</LabelStyle>
			<LineStyle>
				<color>ff2dc0fb</color>
				<width>6</width>
			</LineStyle>
			<PolyStyle>
				<color>40ffffff</color>
			</PolyStyle>
			<BalloonStyle>
			</BalloonStyle>
		</Style>
	</gx:CascadingStyle>
	<gx:CascadingStyle kml:id="__managed_style_088CDBD0B540CF87F1D4_normal">
		<styleUrl>https://earth.google.com/balloon_components/base/1.1.0.0/card_template.kml#main</styleUrl>
		<Style>
			<IconStyle>
				<Icon>
					<href>https://earth.google.com/earth/document/icon?color=1976d2&amp;id=2000&amp;scale=4</href>
				</Icon>
				<hotSpot x="64" y="128" xunits="pixels" yunits="insetPixels"/>
			</IconStyle>
			<LabelStyle>
			</LabelStyle>
			<LineStyle>
				<color>ff2dc0fb</color>
				<width>4</width>
			</LineStyle>
			<PolyStyle>
				<color>40ffffff</color>
			</PolyStyle>
			<BalloonStyle>
			</BalloonStyle>
		</Style>
	</gx:CascadingStyle>
	<StyleMap id="__managed_style_088CDBD0B540CF87F1D4">
		<Pair>
			<key>normal</key>
			<styleUrl>#__managed_style_088CDBD0B540CF87F1D4_normal</styleUrl>
		</Pair>
		<Pair>
			<key>highlight</key>
			<styleUrl>#__managed_style_088CDBD0B540CF87F1D4_highlight</styleUrl>
		</Pair>
	</StyleMap>
	<gx:CascadingStyle kml:id="__managed_style_04B58E304E40CF87F1DC_highlight">
		<styleUrl>https://earth.google.com/balloon_components/base/1.1.0.0/card_template.kml#main</styleUrl>
		<Style>
			<IconStyle>
				<scale>1.2</scale>
				<Icon>
					<href>https://maps.google.com/mapfiles/kml/pushpin/ylw-pushpin.png</href>
				</Icon>
			</IconStyle>
			<LabelStyle>
			</LabelStyle>
			<LineStyle>
				<color>641400f0</color>
				<width>1.5</width>
			</LineStyle>
			<PolyStyle>
				<color>641400f0</color>
			</PolyStyle>
			<BalloonStyle>
			</BalloonStyle>
		</Style>
	</gx:CascadingStyle>
	<gx:CascadingStyle kml:id="__managed_style_065538AF3440CF8825AF_highlight">
		<styleUrl>https://earth.google.com/balloon_components/base/1.1.0.0/card_template.kml#main</styleUrl>
		<Style>
			<IconStyle>
				<scale>1.2</scale>
				<Icon>
					<href>https://earth.google.com/earth/document/icon?color=d32f2f&amp;id=2000&amp;scale=4</href>
				</Icon>
				<hotSpot x="64" y="128" xunits="pixels" yunits="insetPixels"/>
			</IconStyle>
			<LabelStyle>
			</LabelStyle>
			<LineStyle>
				<color>ff2dc0fb</color>
				<width>6</width>
			</LineStyle>
			<PolyStyle>
				<color>40ffffff</color>
			</PolyStyle>
			<BalloonStyle>
				<displayMode>hide</displayMode>
			</BalloonStyle>
		</Style>
	</gx:CascadingStyle>
	<gx:CascadingStyle kml:id="__managed_style_04B58E304E40CF87F1DC_normal">
		<styleUrl>https://earth.google.com/balloon_components/base/1.1.0.0/card_template.kml#main</styleUrl>
		<Style>
			<IconStyle>
				<Icon>
					<href>https://maps.google.com/mapfiles/kml/pushpin/ylw-pushpin.png</href>
				</Icon>
			</IconStyle>
			<LabelStyle>
			</LabelStyle>
			<LineStyle>
				<color>641400f0</color>
			</LineStyle>
			<PolyStyle>
				<color>641400f0</color>
			</PolyStyle>
			<BalloonStyle>
			</BalloonStyle>
		</Style>
	</gx:CascadingStyle>
	<StyleMap id="__managed_style_04B58E304E40CF87F1DC">
		<Pair>
			<key>normal</key>
			<styleUrl>#__managed_style_04B58E304E40CF87F1DC_normal</styleUrl>
		</Pair>
		<Pair>
			<key>highlight</key>
			<styleUrl>#__managed_style_04B58E304E40CF87F1DC_highlight</styleUrl>
		</Pair>
	</StyleMap>
	<Placemark id="10">
		<name>Rocket Trajectory - Powered by RocketPy</name>
		<styleUrl>#__managed_style_04B58E304E40CF87F1DC</styleUrl>
		<LineString id="9">
			<extrude>1</extrude>
			<altitudeMode>relativeToGround</altitudeMode>
			<coordinates>
				-48.93604961438955,-26.30530456662508,0 -48.93604961438955,-26.30530456662508,0 -48.93604961438955,-26.30530456662508,0 -48.93604961438955,-26.30530456662508,2.524354896707238e-29 -48.93604961438955,-26.30530456662508,0 -48.93604961438955,-26.30530456662508,0 -48.93604961438955,-26.30530456662508,0 -48.93604961438955,-26.30530456662508,1.615587133892632e-27 -48.93604961438955,-26.30530456662508,-2.584939414228211e-26 -48.93604961438955,-26.30530456662508,0 -48.93604961438955,-26.30530456662508,0 -48.93604961438955,-26.30530456662508,0 -48.93604961438955,-26.30530456662508,0 -48.93604961438955,-26.30530456662508,6.617444900424221e-24 -48.93604961438955,-26.30530456662508,0 -48.93604961438633,-26.30530456663007,3.637349372809241e-06 -48.93604961434707,-26.30530456669105,4.805708063670976e-05 -48.93604961421521,-26.30530456689577,0.0001971973047609765 -48.93604961392763,-26.30530456734229,0.0005224953149500777 -48.93604961264133,-26.30530456933952,0.001977506527545358 -48.93604961114787,-26.3053045716584,0.003666839827289436 -48.93604960889405,-26.30530457515788,0.006216266032527784 -48.93604960561711,-26.30530458024593,0.009922978344999223 -48.93604959849558,-26.30530459130345,0.01797853596434251 -48.93604959037817,-26.30530460390728,0.02716059190151653 -48.93604957959843,-26.30530462064485,0.03935414440962504 -48.93604956582442,-26.30530464203162,0.05493468728950646 -48.93604954879307,-26.30530466847599,0.07419977691908386 -48.93604952828466,-26.30530470031919,0.09739798333545478 -48.93604950409793,-26.30530473787367,0.124756932783189 -48.93604944384014,-26.30530483143527,0.1929178338312027 -48.9360493979494,-26.3053049026893,0.2448273646644878 -48.93604934529194,-26.30530498444998,0.304391130867927 -48.93604928568168,-26.30530507700616,0.3718195746479616 -48.93604917684146,-26.30530524600115,0.4949347326699787 -48.93604904989825,-26.3053054431045,0.638527203201626 -48.93604890473661,-26.30530566849538,0.8027275338134919 -48.93604874114924,-26.30530592249567,0.9877702041708467 -48.93604853191881,-26.30530624736543,1.224442259239275 -48.93604829753264,-26.30530661129425,1.489569359335146 -48.93604803666365,-26.30530701634263,1.78465263305943 -48.93604800343812,-26.30530706793156,1.822235870053564 -48.93604796979891,-26.30530712016278,1.860287025605775 -48.93604793574438,-26.30530717303886,1.898807975577192 -48.93604786638704,-26.30530728072926,1.977261894283564 -48.93604779536319,-26.30530739100719,2.057600870306778 -48.93604772266895,-26.30530750387873,2.139829331018678 -48.93604756447633,-26.30530774950265,2.318769701123887 -48.93604739876967,-26.30530800679355,2.506209631849782 -48.93604722546305,-26.30530827588482,2.702246288316672 -48.93604669486148,-26.30530909974394,3.302438898171747 -48.93604659507319,-26.30530925468412,3.415314930088908 -48.93604657432439,-26.30530928694346,3.438803662358203 -48.93604655351231,-26.30530931934402,3.462382649648863 -48.93604651176214,-26.30530938442703,3.509720828566444 -48.93604646976073,-26.3053094500729,3.55741880446865 -48.93604642750982,-26.30530951627969,3.605475353072617 -48.93604606628456,-26.30531008896167,4.019292221223957 -48.93604568831593,-26.3053106998059,4.457512357487403 -48.93604537805446,-26.30531120889885,4.820630642534233 -48.93604505711502,-26.3053117416468,5.198818478682323 -48.93604472529289,-26.3053122978672,5.591872779573968 -48.9360443822212,-26.3053128774565,5.999616139699508 -48.93604389213017,-26.30531371073165,6.582721226269068 -48.93604337736372,-26.30531458888573,7.193380566802001 -48.93604329597048,-26.3053147277322,7.289574766325909 -48.93604321390595,-26.30531486767506,7.386429258807105 -48.93604313116072,-26.30531500871489,7.483942034538444 -48.93604296358949,-26.30531529408214,7.680928903198041 -48.93604279318982,-26.30531558382944,7.880513042263483 -48.93604261988114,-26.30531587795951,8.082674794211499 -48.93604234172763,-26.30531634852738,8.40516921371858 -48.93604205577464,-26.30531683000858,8.733942587268018 -48.93604176161689,-26.30531732246928,9.068940974565635 -48.93604130960501,-26.3053180729152,9.576945123732898 -48.93604092876992,-26.30531869842959,9.998014355072627 -48.93604053370801,-26.3053193401643,10.42772661964899 -48.93604045771716,-26.30531946271539,10.50952136137449 -48.9360403811768,-26.30531958585589,10.59162257249567 -48.93604030408338,-26.30531970958454,10.67402807317897 -48.9360401482243,-26.3053199588018,10.83974394094147 -48.93603999010943,-26.30532021035675,11.00665039490162 -48.9360398297099,-26.30532046424052,11.17473070887318 -48.93603966699299,-26.30532072044694,11.34396945949253 -48.93603911827203,-26.30532157444732,11.90531833481188 -48.9360385432518,-26.30532245302606,12.47835923619026 -48.93603805158185,-26.30532319133758,12.95640264320031 -48.93603754102188,-26.30532394576421,13.44155819067516 -48.93603701077338,-26.30532471634313,13.93361166195893 -48.93603646007342,-26.30532550308842,14.43233584591395 -48.93603588838397,-26.30532630585342,14.93742175830544 -48.9360352953474,-26.30532712437214,15.4485033868557 -48.93603468044499,-26.30532795851817,15.96529169313279 -48.9360337109582,-26.30532924501748,16.75431338176396 -48.9360326871434,-26.30533056766659,17.55536480091849 -48.93603160615268,-26.30533192697738,18.36795922502085 -48.93603046564798,-26.30533332319686,19.19150947388501 -48.93602976834069,-26.30533415920494,19.67931978736336 -48.93602904956833,-26.30533500792568,20.17054813286229 -48.93602830916191,-26.305335869265,20.66503233612438 -48.93602754715524,-26.3053367430158,21.16256903416424 -48.9360265119934,-26.30533791083808,21.82129619493078 -48.93602543926695,-26.30533909962167,22.48467123170635 -48.93602432907034,-26.30534030901313,23.15233756275274 -48.93602318168595,-26.30534153859061,23.82393344943714 -48.93602136284414,-26.30534344992073,24.85403501921127 -48.93601946069879,-26.30534540529214,25.89124309792449 -48.93601747855236,-26.30534740242356,26.93428428203816 -48.93601542093685,-26.3053494385169,27.98181783004037 -48.93601329348072,-26.30535151031745,29.03245865036356 -48.93601110287622,-26.30535361410604,30.08476843903432 -48.93600885652306,-26.30535574587525,31.13730948790798 -48.93600656290423,-26.30535790106597,32.1885411328361 -48.9360042312408,-26.30536007473318,33.23686295096009 -48.93600187018141,-26.30536226229643,34.28085821939526 -48.93599920954183,-26.30536471553263,35.43961304815163 -48.93599653151378,-26.30536717612492,36.59012281545984 -48.93599384364004,-26.30536964036011,37.73145747036816 -48.93599115205652,-26.3053721053389,38.86297999267261 -48.93598846165776,-26.30537456888954,39.98431040728324 -48.9359857753833,-26.30537703004434,41.09548949044022 -48.93598309538115,-26.30537948829071,42.19671063862276 -48.93597975644147,-26.30538255707188,43.55989153981999 -48.93597643467521,-26.30538561914614,44.90794779227834 -48.93597313344945,-26.30538867345501,46.24108520999194 -48.93596985559095,-26.3053917190263,47.55945702483952 -48.93596643258102,-26.30539491482287,48.93151394381577 -48.93596303951738,-26.30539809935433,50.28746071543377 -48.93595967725484,-26.30540127215544,51.62737976161491 -48.93595634585842,-26.30540443299898,52.95132550347027 -48.93595304469388,-26.30540758186915,54.25932214014147 -48.93594885151586,-26.30541160464449,55.9141197253623 -48.93594470216291,-26.30541560876538,57.54258029619788 -48.9359405914847,-26.30541959554843,59.14465274302015 -48.93593651375414,-26.30542356648683,60.72021123901893 -48.93593246290455,-26.3054275232379,62.26910289802661 -48.93592707675371,-26.30543279584127,64.29862442338775 -48.9359217144176,-26.30543804993256,66.27963983844334 -48.93591636451512,-26.30544328876681,68.21163137510011 -48.93591101796493,-26.30544851505054,70.09414959401396 -48.93590566784836,-26.30545373114126,71.92694428423357 -48.93590031020796,-26.30545893849692,73.70982082609812 -48.93589409172194,-26.30546496169258,75.71292198073715 -48.93588786296129,-26.30547097422899,77.64902717814687 -48.93588162817291,-26.30547697559079,79.51849768838906 -48.93587539181443,-26.30548296585373,81.32216365105204 -48.93586916056871,-26.30548894406482,83.06080944968559 -48.935862941427,-26.30549490914953,84.7353023612087 -48.93585674160894,-26.30550085971431,86.3464628013058 -48.93585056785824,-26.30550679430909,87.89505323583941 -48.93584442574833,-26.30551271175671,89.3818011812231 -48.93583831981908,-26.30551861099178,90.80732722023328 -48.93583225331322,-26.3055244912185,92.17216087734387 -48.9358288204356,-26.30552782782591,92.92170732803191 -48.93582540124017,-26.30553115799719,93.65180718726626 -48.93582199583435,-26.30553448167914,94.3625127540124 -48.93581860415754,-26.30553779888674,95.05387569776737 -48.93581415901815,-26.30554215682966,95.93475938713357 -48.93580973685721,-26.30554650373672,96.78225702377887 -48.93580533689541,-26.30555083979917,97.59642524548637 -48.93580095818488,-26.30555516525468,98.37730340737912 -48.93579505201684,-26.30556101477616,99.38315083253659 -48.93578918022476,-26.30556684591621,100.3278236929955 -48.93578334050779,-26.30557265896178,101.2112456940098 -48.93577753036961,-26.30557845435806,102.0333467582882 -48.93577174647843,-26.30558423319937,102.7941453808361 -48.93576486774962,-26.30559111593715,103.6225874849831 -48.93575801868888,-26.30559797715675,104.3634243324956 -48.93575119578367,-26.30560481787334,105.0166112638342 -48.93574439611704,-26.30561163897042,105.5821215545766 -48.93573761731332,-26.30561844123304,106.0599526104969 -48.9357325767954,-26.30562349985614,106.3591066358289 -48.9357275463602,-26.30562854856736,106.6095665351963 -48.93572252561002,-26.30563358755282,106.8113529354078 -48.93571751413217,-26.30563861706973,106.964496434343 -48.93571200898645,-26.30564414175982,107.0768552709795 -48.93570651431621,-26.30564965565148,107.1303847140926 -48.93570426071184,-26.3056519170739,107.1353383946502 -48.93570380435489,-26.30565237501092,107.1351345379976 -48.93570345098898,-26.30565272959911,107.13457520289 -48.93570309766471,-26.30565308414507,107.1337719194795 -48.9356996863949,-26.30565650720199,107.1146318144359 -48.935696278965,-26.30565992641689,107.0727360161911 -48.93569287533631,-26.30566334188922,107.0080931595596 -48.93568634499308,-26.30566989541083,106.8200257257773 -48.93567982851201,-26.30567643618891,106.548004847639 -48.93567332603419,-26.30568296485454,106.1920230524143 -48.935666837893,-26.30568948199575,105.7520315553844 -48.93565887346848,-26.30569748753393,105.0950746114828 -48.93565093385263,-26.30570547656624,104.3104637661036 -48.93564302302578,-26.30571344814886,103.3978698818739 -48.93563514594702,-26.30572140062114,102.3568948451505 -48.93563438595251,-26.30572216881776,102.2493674078178 -48.93563429320702,-26.3057222630205,102.2360621271333 -48.9356342017808,-26.30572235632872,102.2228396243202 -48.93563402152932,-26.30572254118156,102.1965575857458 -48.93563384640526,-26.30572272255777,102.1705963528673 -48.93563367626312,-26.305722900556,102.1449459073802 -48.9356329521147,-26.30572368057678,102.0303648126109 -48.93563231888668,-26.30572439894924,101.9213579605855 -48.93563176657374,-26.30572506245747,101.8172370447561 -48.93563128667788,-26.30572567686356,101.7174178257467 -48.9356306857065,-26.30572651889141,101.5743520471591 -48.93563021208232,-26.3057272745721,101.4385134073509 -48.93562984952481,-26.30572795494466,101.3087858140311 -48.93562958456288,-26.30572856914314,101.1842467775192 -48.93562940619726,-26.30572912462562,101.0641452623034 -48.93562927564841,-26.30572997065692,100.8635742189576 -48.93562934201527,-26.3057306831714,100.6719894429493 -48.93562957501621,-26.30573128270153,100.4873518373159 -48.93562995164837,-26.30573178484435,100.3081317642686 -48.93563045341391,-26.30573220214232,100.1331152200064 -48.93563106525926,-26.30573254480249,99.96132857466708 -48.93563231196041,-26.30573297568802,99.67714645938531 -48.93563379079603,-26.30573324917978,99.39717969123409 -48.93563546683571,-26.30573338896221,99.11943686386404 -48.93563731311709,-26.30573341331706,98.84251774627214 -48.93563930814452,-26.30573333681936,98.56542724538207 -48.93564143451822,-26.30573317126689,98.28747939720654 -48.93564563942868,-26.30573266606034,97.77292206380865 -48.93565016959686,-26.3057319403273,97.25247977401229 -48.93565497093368,-26.30573103074218,96.72579240620639 -48.93566000062889,-26.3057299663317,96.19314947609028 -48.9356652234438,-26.30572877098867,95.65511288300532 -48.93567061023794,-26.30572746447097,95.11240150577616 -48.93567763976354,-26.3057256733883,94.41854240703707 -48.93568485219053,-26.30572375830472,93.71971044526153 -48.9356922137783,-26.3057217420964,93.01709458532869 -48.93569969685628,-26.30571964352383,92.311643356283 -48.93570727879776,-26.30571747792757,91.60409128128907 -48.9357170805686,-26.3057146331242,90.69795525333893 -48.93572698336164,-26.3057117198355,89.79017085503324 -48.93573696350562,-26.30570875410955,88.88131572019903 -48.93574700303581,-26.3057057481254,87.97176412686615 -48.93575794434101,-26.30570245316676,86.98456984787727 -48.93576892651566,-26.30569913050308,85.99703697756229 -48.93577993913206,-26.30569578720337,85.00930732613242 -48.93580099138246,-26.30568937333837,83.1262527226588 -48.93582208789937,-26.30568292946544,81.24312749861892 -48.93584321166171,-26.30567646712175,79.35992316161358 -48.93586435339721,-26.30566999259169,77.47655451809185 -48.93587538358787,-26.30566661319358,76.49430117202148 -48.93588641560311,-26.30566323255772,75.51208133007776 -48.93589744897504,-26.3056598510012,74.52986676207645 -48.93590848058139,-26.30565646961027,73.54789584309287 -48.93591951294297,-26.3056530877063,72.56592382203678 -48.93593054587049,-26.30564970541755,71.58395215113029 -48.93595262096881,-26.30564293757376,69.61928958157918 -48.9359746970867,-26.305636169034,67.65462665730234 -48.93599677373022,-26.30562940013299,65.68996255557914 -48.93601885047011,-26.30562263109387,63.72531370393344 -48.93604092737365,-26.30561586193876,61.76066444005341 -48.93615432587467,-26.30558109169786,51.66925118375928 -48.93626772486191,-26.30554632099233,41.57782249759883 -48.93638112380104,-26.30551155018415,31.48637749264938 -48.93673493770394,-26.3054030618232,-0.0001158547588991504 
			</coordinates>
		</LineString>
	</Placemark>
	<Placemark id="0A723AD2BE40CF87F1B0">
		<name>Haste</name>
		<LookAt>
			<longitude>-48.93486320274058</longitude>
			<latitude>-26.30510549421829</latitude>
			<altitude>22.04559852760308</altitude>
			<heading>98.05843272653449</heading>
			<tilt>72.39345697705207</tilt>
			<gx:fovy>30</gx:fovy>
			<range>284.4519322610358</range>
			<altitudeMode>absolute</altitudeMode>
		</LookAt>
		<styleUrl>#__managed_style_088CDBD0B540CF87F1D4</styleUrl>
		<Point>
			<coordinates>-48.93605535302365,-26.30530374342564,23.38557902499333</coordinates>
		</Point>
	</Placemark>
	<Placemark id="04C7768FA340CF8819A9">
		<name>Aerocircus Clube de Aeromodelismo</name>
		<LookAt>
			<longitude>-48.9371379</longitude>
			<latitude>-26.3032682</latitude>
			<altitude>0</altitude>
			<heading>0</heading>
			<tilt>0</tilt>
			<gx:fovy>35</gx:fovy>
			<range>935.3925946263378</range>
			<altitudeMode>relativeToGround</altitudeMode>
		</LookAt>
		<styleUrl>#__managed_style_065538AF3440CF8825AF</styleUrl>
		<Point>
			<altitudeMode>relativeToGround</altitudeMode>
			<coordinates>-48.93713789999999,-26.3032682,0</coordinates>
		</Point>
	</Placemark>
</Document>
</kml>
