<?xml version="1.0" encoding="UTF-8"?>
<kml xmlns="http://www.opengis.net/kml/2.2" xmlns:gx="http://www.google.com/kml/ext/2.2">
    <Document id="8">
        <Style id="11">
            <LineStyle id="12">
                <color>641400F0</color>
                <colorMode>normal</colorMode>
            </LineStyle>
            <PolyStyle id="13">
                <color>641400F0</color>
                <colorMode>normal</colorMode>
                <fill>1</fill>
                <outline>1</outline>
            </PolyStyle>
        </Style>
        <open>1</open>
        <Placemark id="10">
            <name>Rocket Trajectory - Powered by RocketPy</name>
            <styleUrl>#11</styleUrl>
            <LineString id="9">
                <extrude>1</extrude>
                <altitudeMode>relativeToGround</altitudeMode>
                <coordinates>-48.936049614389546,-26.30530456662508,0.0 -48.936049614389546,-26.30530456662508,0.0 -48.936049614389546,-26.30530456662508,-3.1554436208840472e-30 -48.936049614389546,-26.30530456662508,5.048709793414476e-29 -48.936049614389546,-26.30530456662508,1.0097419586828951e-28 -48.936049614389546,-26.30530456662508,0.0 -48.936049614389546,-26.30530456662508,4.0389678347315804e-28 -48.936049614389546,-26.30530456662508,0.0 -48.936049614389546,-26.30530456662508,-5.169878828456423e-26 -48.936049614389546,-26.30530456662508,-1.0339757656912846e-25 -48.936049614389546,-26.30530456662508,0.0 -48.936049614389546,-26.30530456662508,2.0679515313825692e-25 -48.936049614389546,-26.30530456662508,0.0 -48.936049614389546,-26.30530456662508,-6.617444900424222e-24 -48.936049614389546,-26.30530456662508,2.6469779601696886e-23 -48.9360496143863,-26.305304566630117,3.671224416024188e-06 -48.93604961434701,-26.305304566691113,4.810651756592677e-05 -48.93604961421547,-26.305304566895362,0.00019690628970181476 -48.93604961392902,-26.305304567340134,0.0005209246745305762 -48.93604961263721,-26.305304569345903,0.0019821596526465868 -48.93604961113552,-26.30530457167756,0.0036807993467231626 -48.936049608868004,-26.30530457519831,0.006245715978163703 -48.93604960556962,-26.305304580319675,0.009976700377222869 -48.936049598416226,-26.305304591426673,0.01806830088345457 -48.93604959028099,-26.305304604058175,0.027270521190031264 -48.93604957948376,-26.305304620822906,0.03948385503399266 -48.93604956569332,-26.30530464223517,0.055082982024941884 -48.936049548647055,-26.30530466870272,0.07436495263581477 -48.936049528125416,-26.30530470056644,0.09757810654031296 -48.9360495039274,-26.305304738138435,0.12494981812037942 -48.93604944365398,-26.305304831724307,0.19312840109956753 -48.93604939774815,-26.30530490300179,0.24505501898324944 -48.93604934507689,-26.305304984783877,0.3046343853844799 -48.93604928545425,-26.30530507735929,0.37207683175753203 -48.93604917759975,-26.30530524482379,0.49407700442977287 -48.936049051955194,-26.305305439910693,0.636200472849774 -48.936048908408665,-26.305305662793806,0.7985738597681671 -48.93604874676306,-26.30530591377914,0.9814200983425715 -48.93604853700167,-26.30530623947335,1.2186927653844943 -48.936048301825984,-26.30530660462803,1.4847129302788193 -48.93604803989748,-26.30530701132151,1.7809946769152705 -48.93604800674167,-26.305307062802164,1.818499034661459 -48.93604797317315,-26.30530711492364,1.856470240113259 -48.93604793919003,-26.30530716768885,1.8949104145694255 -48.9360478699775,-26.305307275154384,1.9732005230128407 -48.93604779910011,-26.305307385204916,2.0533738362199507 -48.936047726555714,-26.30530749784379,2.1354327888934077 -48.9360476523377,-26.30530761308128,2.219384873400635 -48.93604748253519,-26.30530787673176,2.4114578431706875 -48.93604730439069,-26.305308153334735,2.6129668862698203 -48.93604711782827,-26.30530844300813,2.82399790232256 -48.93604692283875,-26.305308745766197,3.0445612811237805 -48.93604660299552,-26.30530924238321,3.4063535478267855 -48.93604659507464,-26.30530925468187,3.415313288971245 -48.936046570737055,-26.305309292456574,3.4428251397246714 -48.93604654627455,-26.305309330411237,3.4704606273110095 -48.93604649710016,-26.3053094066796,3.5259783854612614 -48.936046447428076,-26.305309483664285,3.581988727688554 -48.936046397260334,-26.30530956136182,3.6384896885263913 -48.93604601920746,-26.30531014522147,4.062269511346307 -48.93604561560522,-26.305310765727832,4.511354731047536 -48.936045259990884,-26.305311310490822,4.904657020660785 -48.93604488678519,-26.30531188061841,5.315312700046075 -48.936044496122506,-26.30531247605807,5.743082743414239 -48.93604408807269,-26.305313096914496,6.187759038866808 -48.93604399135429,-26.305313243953446,6.292851404349012 -48.93604389370364,-26.30531339237398,6.3988392156166505 -48.93604379511606,-26.305313542187616,6.505724942428564 -48.93604359510852,-26.305313846048275,6.722200903216855 -48.936043391293225,-26.305314155631176,6.9422984464720265 -48.936043183624804,-26.30531447104839,7.166040488756721 -48.93604302563741,-26.305314711021985,7.335908456342395 -48.93604286545574,-26.30531495436332,7.507828255078078 -48.93604270307898,-26.305315201092444,7.681787760262736 -48.936042475216546,-26.305315547450107,7.9253645845745835 -48.936042243166504,-26.305315900361794,8.17276887632297 -48.936042006910796,-26.305316259914083,8.423979538286854 -48.93604141642039,-26.30531716002112,9.048770118253746 -48.936040906942175,-26.305317938600233,9.584313698449783 -48.93604054750897,-26.305318489180266,9.960134894188617 -48.93604017976766,-26.305319053769793,10.342882723713862 -48.936039900823125,-26.305319482973207,10.632006476040097 -48.93603961718326,-26.30531992029068,10.92491668991152 -48.9360393288706,-26.305320365763748,11.22152989969127 -48.93603885880934,-26.3053210942076,11.702668239441266 -48.93603837696354,-26.305321843760158,12.19270521658039 -48.936037883471535,-26.305322614504227,12.691253208047701 -48.93603737846223,-26.305323406537607,13.197932432507331 -48.93603686196892,-26.305324220135326,13.712445747041222 -48.93603633397598,-26.3053250556618,14.234537773825242 -48.93603579454432,-26.305325913326957,14.763892106575488 -48.93603524381881,-26.305326793168057,15.300128320808572 -48.93603477926627,-26.30532753865521,15.74917766705305 -48.936034307035115,-26.30532829960679,16.202569397838587 -48.936033827063085,-26.305329076316582,16.66020685982689 -48.93603333927406,-26.305329869102852,17.122004990421487 -48.936032843597296,-26.30533067826946,17.587875745267883 -48.93603233995631,-26.30533150412806,18.05773663501031 -48.93603130861969,-26.305333206793964,19.009054898556812 -48.93603047145443,-26.305334600204088,19.77064161353898 -48.93602981683214,-26.305335696673755,20.35968147796146 -48.93602915050662,-26.305336818796693,20.95353646451892 -48.93602847267169,-26.305337966351804,21.551887036615533 -48.93602778343981,-26.305339139270664,22.154480633376984 -48.93602680667268,-26.305340811598086,22.998710284769068 -48.93602580858909,-26.305342532069197,23.84996291510723 -48.936024789721806,-26.3053442998218,24.707549868876896 -48.93602375067486,-26.30534611376897,25.570794108615843 -48.936022392786526,-26.305348500056745,26.682610499639047 -48.936021005062166,-26.305350955445284,27.800947627822367 -48.93601958990724,-26.305353474719492,28.924122812673804 -48.936018150150474,-26.30535605160117,30.050356153095976 -48.93601668886411,-26.305358679166513,31.177861578383613 -48.936015209538425,-26.305361349499293,32.304738613490215 -48.93601371608991,-26.30536405370458,33.42895032161837 -48.936012212121256,-26.305366783544464,34.54870579162922 -48.93601070084052,-26.305369531631406,35.66248320627319 -48.93600918499522,-26.30537229158038,36.76904675934006 -48.93600747899434,-26.305375400558486,38.00267468923424 -48.936005772249665,-26.30537851251088,39.225233635095975 -48.93600406642836,-26.305381623242226,40.43624064929343 -48.9360038070762,-26.305382096179724,40.61944275794682 -48.936003547763285,-26.305382569033917,40.80237927960242 -48.93600328849069,-26.30538304180037,40.98505114286676 -48.93600302925987,-26.305383514473803,41.1674590520598 -48.93600251093106,-26.30538445951731,41.53148487961678 -48.93600199279108,-26.305385404117562,41.89446085035784 -48.93600147485474,-26.30538634822691,42.25639057280425 -48.936000957137175,-26.30538729179758,42.61727730791132 -48.935999635999515,-26.305389698882617,43.53425670925677 -48.93599831662869,-26.30539210140294,44.44450136098586 -48.93599699925616,-26.305394498655904,45.34805618749476 -48.93599568409745,-26.305396889999333,46.24496230305533 -48.93599414902978,-26.305399678517546,47.28555243789797 -48.935992617541686,-26.305402457358742,48.317153601753574 -48.93599108986663,-26.30540522588214,49.33981169811122 -48.935989566194635,-26.305407983588537,50.35356627811851 -48.93598804667247,-26.305410730116282,51.35845107172216 -48.93598572497057,-26.305414919368374,52.88214106159836 -48.93598341344088,-26.30541908163453,54.38510683359023 -48.93598111205186,-26.305423217371025,55.86738043418386 -48.93597882055707,-26.305427327659014,57.32897564437432 -48.93597653851772,-26.305431414114214,58.76989668901419 -48.93597465646074,-26.305434779790193,59.94687165888588 -48.935972780092854,-26.30543813180935,61.10966678582906 -48.935970908999856,-26.305441471528777,62.258261018947174 -48.935969042750216,-26.30544480034254,63.39262665515221 -48.93596718091954,-26.305448119619133,64.51272468642952 -48.93596491322306,-26.30545216107054,65.86083286574446 -48.93596318853189,-26.305455234330584,66.87387326483113 -48.93596146655936,-26.305458302799092,67.87445430266919 -48.935959747012525,-26.305461367363616,68.86254866495341 -48.93595802962025,-26.305464428830888,69.83813272612633 -48.9359560644521,-26.30546793326636,70.9403905136955 -48.93595410146419,-26.305471435508156,72.02617794193795 -48.935952140391834,-26.305474936281716,73.09547953038667 -48.93595018102132,-26.30547843614487,74.14828847152995 -48.93594822323946,-26.30548193538915,75.18458519101546 -48.93594597996695,-26.305485947658642,76.35265250661216 -48.93594373867501,-26.305489959262047,77.49898874312639 -48.93594149932333,-26.305493970128953,78.62364255591689 -48.93593926188225,-26.305497980104196,79.72669673104326 -48.93593702636647,-26.305501988889496,80.8082487239041 -48.935934549576004,-26.305506432581417,81.98264147247389 -48.93593207541021,-26.305510873437726,83.13085776039658 -48.93592960410038,-26.305515310497324,84.25303817004651 -48.93592713592698,-26.305519742691217,85.34932074230973 -48.9359246711843,-26.30552416892798,86.41984761593935 -48.93592221015198,-26.305528588165295,87.4647679741519 -48.935918806186365,-26.305534699119573,88.87080393011001 -48.93591541049906,-26.305540792388225,90.22833482816945 -48.93591202369512,-26.305546865853522,91.53770895413894 -48.93590864633539,-26.305552917665896,92.7992273927631 -48.93590527889628,-26.305558946328823,94.01315177282329 -48.93590192171161,-26.30556495081148,95.17972061089436 -48.93589698579629,-26.305573767793224,96.81543941893501 -48.9358933011845,-26.30558034082318,97.97448778422901 -48.93588962925863,-26.305586883892396,99.07640371455469 -48.93588596994753,-26.30559339744692,100.12131733764774 -48.93588232302386,-26.305599882345113,101.10934821690286 -48.93587868832511,-26.30560633937869,102.04055952161367 -48.93587506547271,-26.305612769808036,102.91504299983742 -48.935871453900766,-26.3056191752808,103.73291797615225 -48.93586785304485,-26.305625557433007,104.49428916862746 -48.93586367074512,-26.305632965455573,105.31016311467405 -48.93585950176844,-26.305640345624447,106.04952211298641 -48.93585534563429,-26.305647699518584,106.71243373968292 -48.93585120184882,-26.305655028660006,107.29898404443225 -48.93584706983766,-26.305662334655448,107.80928790953533 -48.9358429490252,-26.305669619037367,108.2434675774463 -48.93583725353026,-26.305679684757674,108.71969867039896 -48.93583157731006,-26.30568971459201,109.05013258943572 -48.93582591901703,-26.305699711603364,109.2350729588412 -48.93582155046293,-26.305707429475955,109.27851478112015 -48.93582137158826,-26.305707745487155,109.2784410535747 -48.93582115623188,-26.305708125948875,109.27805287196473 -48.935820940897415,-26.305708506371563,109.27745303341928 -48.9358191484279,-26.30571167304616,109.26512012252289 -48.9358173574267,-26.30571483711428,109.2381142422367 -48.93581556784243,-26.3057179986757,109.19643963018869 -48.935811641728236,-26.305724934746976,109.05341425043406 -48.93580772166799,-26.305731860192623,108.83963352713828 -48.93580380718745,-26.305738775851005,108.55505736361978 -48.93579989788121,-26.305745682382092,108.19959689900156 -48.93579522865301,-26.30575393129576,107.68116606095522 -48.93579056629972,-26.305762167498717,107.06076989422559 -48.93578591121482,-26.30577038966706,106.33792986044946 -48.93578126446132,-26.305778595022222,105.51206038957851 -48.9357766278765,-26.305786779124404,104.58249076123266 -48.93577614274842,-26.305787635182043,104.47906007356468 -48.93577607550912,-26.305787753640004,104.46459350039804 -48.93577600890795,-26.305787870785693,104.45021496484404 -48.935775876963845,-26.305788102489675,104.42163120268974 -48.935775747500415,-26.30578832909248,104.39338857768819 -48.935775620447714,-26.305788550737898,104.36547638251876 -48.93577506259473,-26.305789514686893,104.24044748043825 -48.935774548953596,-26.30579038771977,104.1213614442036 -48.93577407468234,-26.305791179793488,104.00747776172092 -48.93577363566737,-26.305791899367176,103.89816788179081 -48.935773034319226,-26.305792860502,103.74125850456862 -48.93577249506731,-26.305793693944064,103.59200268635867 -48.935772010023676,-26.305794415913983,103.4492002865602 -48.93577157266011,-26.305795039836223,103.31185983896991 -48.93577117764478,-26.305795576675074,103.17917485904616 -48.935770577028066,-26.305796331282274,102.95692509868366 -48.93577007308772,-26.3057968870881,102.74401204050464 -48.93576965110672,-26.305797274356312,102.53825491563478 -48.935769299899526,-26.30579751608854,102.33802547434037 -48.935769010464945,-26.305797630794665,102.14203803014128 -48.935768775469704,-26.305797633554562,101.94926748830699 -48.935768487216066,-26.305797419146288,101.63051684794719 -48.9357683136394,-26.30579696892326,101.31574835999487 -48.93576823770386,-26.30579631791753,101.00296253408821 -48.93576824617198,-26.305795493350246,100.69078952002752 -48.9357683284085,-26.30579451709149,100.37828550357565 -48.935768475729525,-26.305793406998628,100.0648273091069 -48.93576889214982,-26.305791069370997,99.48588365500133 -48.93576946792123,-26.30578840407164,98.90135161510847 -48.935770175297904,-26.30578546815662,98.31117445923783 -48.935770992180395,-26.30578230707063,97.71584493452805 -48.93577190038055,-26.305778958215214,97.11602591902854 -48.93577288493902,-26.305775452352083,96.51246237486595 -48.93577411831499,-26.305771181510245,95.80185869263047 -48.935775422836684,-26.30576676438309,95.08805687644349 -48.93577678512474,-26.305762228482475,94.37186692570968 -48.935778194264884,-26.305757596250913,93.65391736651183 -48.93577964137792,-26.305752885946056,92.93468168858624 -48.935781502250784,-26.305746880363042,92.02986749351656 -48.935783400473845,-26.30574079799027,91.12409722764154 -48.935785327293885,-26.30573465682525,90.2177098737689 -48.93578727607324,-26.305728470515394,89.31092193199972 -48.93578941120263,-26.305721713418997,88.32578512102835 -48.93579156148525,-26.305714925171376,87.34045437477211 -48.93579372305632,-26.30570811371817,86.35501143497147 -48.935797865649484,-26.305695084338808,84.4765037892508 -48.935802024669535,-26.305682021193412,82.59795696914172 -48.93580619380513,-26.305668937255135,80.71936455328861 -48.93581036961406,-26.305655839598707,78.84067725887168 -48.93581255102895,-26.30564899905693,77.8599226711076 -48.93581473312337,-26.305642157118186,76.8791874804171 -48.93581691572311,-26.305635314140503,75.89845523345834 -48.93581909833546,-26.305628471528554,74.91788410296121 -48.93582128122914,-26.305621628337963,73.93731226604922 -48.93582346433364,-26.305614784713644,72.956740569122 -48.935827831923675,-26.305601093598977,70.99517034079138 -48.935832199893355,-26.30558740170204,69.03359965195621 -48.93583656805875,-26.3055737094008,67.07202802852721 -48.935840936300096,-26.30556001697141,65.11046809634493 -48.93584530460233,-26.305546324414692,63.14890767314874 -48.93586893827533,-26.305472244296368,52.53645344202579 -48.93589257213692,-26.30539816372476,41.92398184696178 -48.93591620597236,-26.305324083140913,31.31149233267831 -48.93598593551447,-26.305105514251032,-9.519582317027539e-05</coordinates>
            </LineString>
        </Placemark>
    </Document>
</kml>
