<?xml version="1.0" encoding="UTF-8"?>
<kml xmlns="http://www.opengis.net/kml/2.2" xmlns:gx="http://www.google.com/kml/ext/2.2" xmlns:kml="http://www.opengis.net/kml/2.2" xmlns:atom="http://www.w3.org/2005/Atom">
<Document id="1">
	<open>1</open>
	<gx:CascadingStyle kml:id="__managed_style_0F2444CED840CFA513F8_highlight">
		<styleUrl>https://earth.google.com/balloon_components/base/1.1.0.0/card_template.kml#main</styleUrl>
		<Style>
			<IconStyle>
				<scale>1.2</scale>
				<Icon>
					<href>https://earth.google.com/earth/document/icon?color=d32f2f&amp;id=2000&amp;scale=4</href>
				</Icon>
				<hotSpot x="64" y="128" xunits="pixels" yunits="insetPixels"/>
			</IconStyle>
			<LabelStyle>
			</LabelStyle>
			<LineStyle>
				<color>ff2dc0fb</color>
				<width>6</width>
			</LineStyle>
			<PolyStyle>
				<color>40ffffff</color>
			</PolyStyle>
			<BalloonStyle>
				<displayMode>hide</displayMode>
			</BalloonStyle>
		</Style>
	</gx:CascadingStyle>
	<StyleMap id="__managed_style_0F2444CED840CFA513F8">
		<Pair>
			<key>normal</key>
			<styleUrl>#__managed_style_0F2444CED840CFA513F8_normal</styleUrl>
		</Pair>
		<Pair>
			<key>highlight</key>
			<styleUrl>#__managed_style_0F2444CED840CFA513F8_highlight</styleUrl>
		</Pair>
	</StyleMap>
	<gx:CascadingStyle kml:id="__managed_style_0583769C8E40CFA4ACDC_highlight">
		<styleUrl>https://earth.google.com/balloon_components/base/1.1.0.0/card_template.kml#main</styleUrl>
		<Style>
			<IconStyle>
				<scale>1.2</scale>
				<Icon>
					<href>https://earth.google.com/earth/document/icon?color=1976d2&amp;id=2000&amp;scale=4</href>
				</Icon>
				<hotSpot x="64" y="128" xunits="pixels" yunits="insetPixels"/>
			</IconStyle>
			<LabelStyle>
			</LabelStyle>
			<LineStyle>
				<color>ff2dc0fb</color>
				<width>6</width>
			</LineStyle>
			<PolyStyle>
				<color>40ffffff</color>
			</PolyStyle>
			<BalloonStyle>
			</BalloonStyle>
		</Style>
	</gx:CascadingStyle>
	<gx:CascadingStyle kml:id="__managed_style_0F2444CED840CFA513F8_normal">
		<styleUrl>https://earth.google.com/balloon_components/base/1.1.0.0/card_template.kml#main</styleUrl>
		<Style>
			<IconStyle>
				<Icon>
					<href>https://earth.google.com/earth/document/icon?color=d32f2f&amp;id=2000&amp;scale=4</href>
				</Icon>
				<hotSpot x="64" y="128" xunits="pixels" yunits="insetPixels"/>
			</IconStyle>
			<LabelStyle>
			</LabelStyle>
			<LineStyle>
				<color>ff2dc0fb</color>
				<width>4</width>
			</LineStyle>
			<PolyStyle>
				<color>40ffffff</color>
			</PolyStyle>
			<BalloonStyle>
				<displayMode>hide</displayMode>
			</BalloonStyle>
		</Style>
	</gx:CascadingStyle>
	<gx:CascadingStyle kml:id="__managed_style_0583769C8E40CFA4ACDC_normal">
		<styleUrl>https://earth.google.com/balloon_components/base/1.1.0.0/card_template.kml#main</styleUrl>
		<Style>
			<IconStyle>
				<Icon>
					<href>https://earth.google.com/earth/document/icon?color=1976d2&amp;id=2000&amp;scale=4</href>
				</Icon>
				<hotSpot x="64" y="128" xunits="pixels" yunits="insetPixels"/>
			</IconStyle>
			<LabelStyle>
			</LabelStyle>
			<LineStyle>
				<color>ff2dc0fb</color>
				<width>4</width>
			</LineStyle>
			<PolyStyle>
				<color>40ffffff</color>
			</PolyStyle>
			<BalloonStyle>
			</BalloonStyle>
		</Style>
	</gx:CascadingStyle>
	<StyleMap id="__managed_style_0583769C8E40CFA4ACDC">
		<Pair>
			<key>normal</key>
			<styleUrl>#__managed_style_0583769C8E40CFA4ACDC_normal</styleUrl>
		</Pair>
		<Pair>
			<key>highlight</key>
			<styleUrl>#__managed_style_0583769C8E40CFA4ACDC_highlight</styleUrl>
		</Pair>
	</StyleMap>
	<gx:CascadingStyle kml:id="__managed_style_0B5DB72A8E40CFA4ACE6_highlight">
		<styleUrl>https://earth.google.com/balloon_components/base/1.1.0.0/card_template.kml#main</styleUrl>
		<Style>
			<IconStyle>
				<scale>1.2</scale>
				<Icon>
					<href>https://maps.google.com/mapfiles/kml/pushpin/ylw-pushpin.png</href>
				</Icon>
			</IconStyle>
			<LabelStyle>
			</LabelStyle>
			<LineStyle>
				<color>641400f0</color>
				<width>1.5</width>
			</LineStyle>
			<PolyStyle>
				<color>641400f0</color>
			</PolyStyle>
			<BalloonStyle>
			</BalloonStyle>
		</Style>
	</gx:CascadingStyle>
	<gx:CascadingStyle kml:id="__managed_style_0B5DB72A8E40CFA4ACE6_normal">
		<styleUrl>https://earth.google.com/balloon_components/base/1.1.0.0/card_template.kml#main</styleUrl>
		<Style>
			<IconStyle>
				<Icon>
					<href>https://maps.google.com/mapfiles/kml/pushpin/ylw-pushpin.png</href>
				</Icon>
			</IconStyle>
			<LabelStyle>
			</LabelStyle>
			<LineStyle>
				<color>641400f0</color>
			</LineStyle>
			<PolyStyle>
				<color>641400f0</color>
			</PolyStyle>
			<BalloonStyle>
			</BalloonStyle>
		</Style>
	</gx:CascadingStyle>
	<StyleMap id="__managed_style_0B5DB72A8E40CFA4ACE6">
		<Pair>
			<key>normal</key>
			<styleUrl>#__managed_style_0B5DB72A8E40CFA4ACE6_normal</styleUrl>
		</Pair>
		<Pair>
			<key>highlight</key>
			<styleUrl>#__managed_style_0B5DB72A8E40CFA4ACE6_highlight</styleUrl>
		</Pair>
	</StyleMap>
	<Placemark id="3">
		<name>Rocket Trajectory - Powered by RocketPy</name>
		<styleUrl>#__managed_style_0B5DB72A8E40CFA4ACE6</styleUrl>
		<LineString id="2">
			<extrude>1</extrude>
			<altitudeMode>relativeToGround</altitudeMode>
			<coordinates>
				-48.93604961438955,-26.30530456662508,0 -48.93604961438955,-26.30530456662508,0 -48.93604961438955,-26.30530456662508,-1.577721810442024e-30 -48.93604961438955,-26.30530456662508,0 -48.93604961438955,-26.30530456662508,0 -48.93604961438955,-26.30530456662508,0 -48.93604961438955,-26.30530456662508,-4.03896783473158e-28 -48.93604961438955,-26.30530456662508,0 -48.93604961438955,-26.30530456662508,0 -48.93604961438955,-26.30530456662508,0 -48.93604961438955,-26.30530456662508,-4.135903062765138e-25 -48.93604961438955,-26.30530456662508,0 -48.93604961438955,-26.30530456662508,0 -48.93604961438955,-26.30530456662508,0 -48.93604961438955,-26.30530456662508,2.646977960169689e-23 -48.93604961438628,-26.30530456663015,3.699494197206831e-06 -48.93604961434696,-26.30530456669121,4.81732993193873e-05 -48.93604961421556,-26.30530456689522,0.0001968002156083059 -48.93604961392983,-26.30530456733887,0.0005200048674325332 -48.93604961263367,-26.3053045693514,0.001986161740322955 -48.9360496111244,-26.30530457169483,0.003693380766623732 -48.93604960884424,-26.30530457523522,0.006272604875448451 -48.936049605526,-26.3053045803874,0.01002604247065264 -48.93604959834057,-26.30530459154414,0.01815387519813427 -48.93604959018725,-26.30530460420373,0.02737656316812931 -48.93604957937153,-26.30530462099716,0.03961079774924414 -48.93604956556279,-26.30530464243785,0.05523063499827429 -48.93604954849881,-26.30530466893289,0.07453263829765078 -48.93604952796039,-26.30530470082267,0.09776477231118717 -48.9360495037468,-26.30530473841886,0.1251541086743444 -48.93604944344684,-26.30530483204592,0.1933627017531237 -48.93604939750706,-26.30530490337611,0.2453277204112219 -48.93604934479902,-26.30530498521534,0.3049487070923789 -48.93604928513644,-26.30530507785275,0.3724363269383026 -48.93604917501834,-26.3053052488319,0.4969969653939543 -48.9360490695288,-26.30530541262436,0.6163220095414559 -48.93604895123882,-26.30530559629189,0.7501263123519593 -48.93604882003647,-26.30530580000833,0.8985365140399394 -48.936048675774,-26.30530602400308,1.061719739135434 -48.93604851819276,-26.30530626867773,1.239968557422578 -48.93604834694921,-26.30530653456569,1.433671559732272 -48.93604816157125,-26.30530682240001,1.643362788350494 -48.93604796228394,-26.30530713183119,1.868787622755242 -48.93604792059246,-26.3053071965651,1.915947156144082 -48.93604787828185,-26.30530726226031,1.963807014792188 -48.93604783535149,-26.30530732891781,2.012367907744483 -48.9360477476291,-26.30530746512337,2.111595520905805 -48.93604765741626,-26.30530760519586,2.213640241248058 -48.93604756469357,-26.30530774916535,2.318523977836734 -48.93604746943479,-26.30530789707259,2.426276418082679 -48.93604725343672,-26.3053082324504,2.670603723206824 -48.93604702527335,-26.30530858671712,2.928691863463232 -48.93604678493111,-26.30530895989383,3.200556181519158 -48.93604659507373,-26.30530925468327,3.415314313802874 -48.93604651158488,-26.30530938431647,3.509435067222228 -48.93604642657911,-26.30530951630596,3.604954073436875 -48.93604628597515,-26.30530973462472,3.762540810257803 -48.93604614137317,-26.30530995915386,3.923807687761641 -48.93604599279315,-26.3053101898624,4.088734235404591 -48.93604577873282,-26.30531052225015,4.325084447218348 -48.93604555692942,-26.3053108666661,4.568566729263967 -48.93604532740369,-26.30531122307818,4.81916371030043 -48.936045090205,-26.30531159140989,5.076825835180653 -48.9360445633993,-26.30531240947133,5.6449118908483 -48.93604400300329,-26.30531327971639,6.243854907450995 -48.93604388889602,-26.30531345691738,6.365220328590212 -48.93604377350076,-26.30531363611938,6.487769039197207 -48.93604365681436,-26.30531381732728,6.61150493499209 -48.93604341955569,-26.30531418578015,6.862553486007101 -48.93604317708906,-26.30531456232415,7.118403453642795 -48.9360429293879,-26.3053149470006,7.379086788512918 -48.93604267645181,-26.30531533981022,7.644605617982228 -48.93604227201409,-26.30531596790862,8.067843493761861 -48.93604185510432,-26.30531661538476,8.502559543838025 -48.93604142581427,-26.30531728209643,8.948650479005281 -48.93604098424844,-26.30531796788175,9.405995759170864 -48.93604046118036,-26.30531878025715,9.945924255929064 -48.93603992217325,-26.30531961739931,10.50037612979239 -48.93603983448607,-26.30531975358903,10.59040090802148 -48.93603974639157,-26.3053198904117,10.68079604423897 -48.9360396578921,-26.30532002786363,10.77155879291091 -48.93603947968688,-26.30532030464194,10.95417705055254 -48.93603929989016,-26.30532058389333,11.13823261506962 -48.93603911851855,-26.30532086559205,11.32370591675647 -48.9360389355859,-26.30532114971658,11.51058034061985 -48.93603842264421,-26.30532194640632,12.03354933322822 -48.93603789826147,-26.30532276087629,12.566652435593 -48.9360373628454,-26.30532359249381,13.10940539648377 -48.93603681670907,-26.30532444077311,13.66142510143727 -48.93603617808904,-26.30532543271537,14.30490836584668 -48.93603552611771,-26.30532644541088,14.95963883654979 -48.9360348613118,-26.30532747805788,15.62497722934185 -48.93603436126273,-26.30532825479751,16.12392007361633 -48.93603385448578,-26.30532904199681,16.628263391407 -48.9360333410288,-26.30532983958174,17.13791639018866 -48.93603229425712,-26.30533146562649,18.17280159834084 -48.93603122142931,-26.30533313218629,19.22769025683248 -48.93603012322186,-26.30533483821303,20.30149815509486 -48.93602900055892,-26.30533658227403,21.39286726480645 -48.93602785446513,-26.30533836278049,22.50033908824834 -48.93602668601854,-26.30534017806057,23.62240989996273 -48.93602549625658,-26.30534202650541,24.75763481394291 -48.9360238473591,-26.30534458835805,26.31866540328126 -48.93602216442927,-26.30534720318585,27.8971197085647 -48.93602045140956,-26.30534986486945,29.48840329393556 -48.93601871291906,-26.30535256623701,31.08748522243951 -48.93601695438979,-26.30535529885226,32.68881303043117 -48.93601560856915,-26.3053573902258,33.90339082052686 -48.93601425708463,-26.30535949046598,35.11360221444252 -48.93601290203591,-26.30536159631021,36.31752052020084 -48.93601154513416,-26.3053637050994,37.51361272427088 -48.93600965017414,-26.3053666502046,39.16820303108371 -48.93600775574476,-26.3053695946106,40.80400680941104 -48.93600586284548,-26.30537253676271,42.42028681325139 -48.93600397175194,-26.30537547623085,44.01696778629207 -48.93600208252375,-26.30537841292064,45.59419309118478 -48.9360001953533,-26.30538134653096,47.15202260104978 -48.93599831044812,-26.30538427673713,48.69052149174109 -48.93599663573633,-26.30538688028095,50.04295982723468 -48.93599496317321,-26.3053894805739,51.38017370322037 -48.93599329291943,-26.30539207736454,52.70219884334323 -48.93599162510416,-26.30539467045029,54.00908833048499 -48.93599011030373,-26.30539702570526,55.18471222363252 -48.9359885977041,-26.30539937760729,56.3478876013793 -48.93598708737532,-26.30540172604612,57.49864823965368 -48.93598557937524,-26.30540407093061,58.63702686664195 -48.9359818013746,-26.30540994586812,61.44254710615893 -48.93597803882803,-26.3054157971691,64.17047499198122 -48.93597429170015,-26.30542162487093,66.82117734963919 -48.93597055940986,-26.30542742986108,69.39510494870926 -48.93596684127147,-26.30543321319099,71.89254989525534 -48.935964994454,-26.30543608592617,73.10796275195983 -48.9359631509169,-26.3054389536412,74.30443886440214 -48.93596131050204,-26.30544181658047,75.48204221935812 -48.93595733839381,-26.30544799584068,77.9656952439604 -48.9359545754126,-26.30545229432015,79.64614487454725 -48.93595181822755,-26.30545658395191,81.28410621041655 -48.93594953768614,-26.30546013214611,82.60928802512154 -48.93594726079845,-26.30546367476628,83.90544124778023 -48.93594498745646,-26.30546721197758,85.17263265160224 -48.93594271757016,-26.30547074391722,86.4109328650557 -48.93593961025537,-26.30547557906042,88.06223060356371 -48.93593650921967,-26.30548040461868,89.65949889647429 -48.93593341446754,-26.30548522057732,91.20289668857993 -48.93593032604916,-26.30549002685069,92.69258429268181 -48.93592724402837,-26.30549482333164,94.12873131181485 -48.93592416848112,-26.30549960989415,95.51151282739218 -48.93592109956698,-26.30550438628198,96.84107239201371 -48.9359180375054,-26.30550915214574,98.11752927033368 -48.93591498247991,-26.30551390719176,99.34101797481392 -48.93591193459157,-26.30551865125486,100.5117056880937 -48.93590889388897,-26.30552338425142,101.6297760818915 -48.93590437791027,-26.30553041378715,103.1980515290785 -48.93589987842574,-26.30553741786803,104.6503962800191 -48.93589539588407,-26.30554439576976,105.9872068475125 -48.93589093062218,-26.30555134694221,107.208884283196 -48.93588648279135,-26.30555827112444,108.3158661383398 -48.93588158904402,-26.30556588962843,109.406063756419 -48.9358767167527,-26.30557347484415,110.3573635504849 -48.93587186605185,-26.30558102652912,111.1702961608583 -48.93586703713714,-26.30558854434576,111.8453699413131 -48.93586223026251,-26.30559602786625,112.383095344691 -48.93585744563635,-26.30560347673401,112.7840356294698 -48.93585268344751,-26.30561089062325,113.048832849665 -48.93584880511762,-26.30561692844256,113.1647156277758 -48.93584576249226,-26.30562166518113,113.1925240947004 -48.93584559168111,-26.30562193109733,113.1924342327406 -48.93584541749185,-26.30562220227226,113.19206999982 -48.93584524333424,-26.30562247339772,113.1915230139521 -48.9358439125619,-26.30562454511521,113.1820040813997 -48.93584258364725,-26.30562661392982,113.1618253759147 -48.9358412565953,-26.30562867983308,113.1310136769212 -48.93583841359595,-26.30563310566287,113.0290584872517 -48.93583557917869,-26.30563751806949,112.8785259251971 -48.93583275323353,-26.30564191721808,112.679748107947 -48.93582993551716,-26.3056463034814,112.43309167756 -48.93582653390138,-26.30565159857542,112.0708787278179 -48.93582314249964,-26.30565687763995,111.63975095755 -48.93581975948123,-26.30566214351532,111.1404148766615 -48.93581638231096,-26.30566740013891,110.5735148558309 -48.93581300766693,-26.30567265267308,109.9395709784758 -48.93580920512654,-26.3056785710171,109.1457073187503 -48.93580681452405,-26.30568229168295,108.604130322722 -48.93580670070827,-26.30568246882024,108.5774970142148 -48.9358065880491,-26.30568264415724,108.551057859528 -48.93580636500198,-26.3056829912959,108.4985595551897 -48.93580614641456,-26.30568333149278,108.44680484499 -48.93580593212622,-26.30568366499791,108.3957618977799 -48.93580511167379,-26.30568494189053,108.1972947216633 -48.93580434954816,-26.30568612799414,108.0081284303996 -48.93580363885418,-26.30568723404147,107.8269056809931 -48.93580297383052,-26.3056882690003,107.6524977347458 -48.93580204123112,-26.30568972035835,107.3987595722685 -48.93580118909336,-26.3056910464731,107.1559162398916 -48.93580040667827,-26.30569226406038,106.9219175265684 -48.9357996853355,-26.3056933865849,106.6951366126916 -48.93579875336628,-26.3056948368412,106.383334327578 -48.93579791400736,-26.30569614294395,106.0805472054729 -48.9357971547004,-26.30569732444098,105.7846162757633 -48.9357964653504,-26.30569839704583,105.493890317126 -48.93579556811549,-26.30569979304788,105.0763411944983 -48.93579478190239,-26.30570101623841,104.6642988036854 -48.93579409071009,-26.30570209152431,104.2558056630557 -48.93579348157414,-26.30570303908588,103.8495019464992 -48.93579270624162,-26.30570424505715,103.2483942355263 -48.93579205999901,-26.30570525009693,102.6481499641896 -48.9357915206217,-26.30570608880004,102.0478241154122 -48.93579107004744,-26.30570678928204,101.4469480774467 -48.93579055589345,-26.30570758838185,100.595025663128 -48.93579015660223,-26.30570820870436,99.74156203371447 -48.9357898465496,-26.30570869013483,98.8868597090643 -48.93578960578876,-26.30570906372098,98.03121215211107 -48.93578941246209,-26.30570936343968,97.14164481447298 -48.93578926372624,-26.30570959376118,96.25154534480721 -48.93578914927477,-26.30570977072685,95.36109724836267 -48.93578906117176,-26.30570990668804,94.47042561086347 -48.93578893839167,-26.30571009539191,92.6281857514572 -48.93578886560183,-26.30571020630536,90.78582721178721 -48.93578882257275,-26.30571027090965,88.94349216747727 -48.93578879745671,-26.30571030764135,87.10120204502617 -48.93578878150502,-26.30571032998932,85.16060758315574 -48.93578877228113,-26.3057103418704,83.22021679832918 -48.93578876655469,-26.30571034831091,81.2800375323621 -48.93578876437503,-26.30571035046736,80.30948536616833 -48.93578876247891,-26.30571035218292,79.33896974007007 -48.93578876085778,-26.30571035347079,78.36849684553789 -48.93578875944694,-26.30571035443239,77.39863605277993 -48.93578875819133,-26.30571035515261,76.42881970804498 -48.93578875705187,-26.30571035569226,75.45904753583245 -48.93578875501065,-26.3057103564026,73.51997330889658 -48.935788753179,-26.30571035678739,71.58107617749988 -48.93578875145577,-26.30571035700394,69.64235634064272 -48.93578874979082,-26.30571035713081,67.70422706614319 -48.93578874028382,-26.30571035742397,56.29512533666403 -48.93578873100906,-26.30571035736978,44.89214230766177 -48.93578872174248,-26.30571035731676,33.49526374088377 -48.93578869444539,-26.3057103572931,-1.083040887528419e-07 
			</coordinates>
		</LineString>
	</Placemark>
	<Placemark id="0CC06504D140CFA4ACA4">
		<name>Haste</name>
		<LookAt>
			<longitude>-48.93601091307151</longitude>
			<latitude>-26.30531851018165</latitude>
			<altitude>23.31167373969203</altitude>
			<heading>61.15637488430288</heading>
			<tilt>30.26886542707648</tilt>
			<gx:fovy>30</gx:fovy>
			<range>29.09720748865311</range>
			<altitudeMode>absolute</altitudeMode>
		</LookAt>
		<styleUrl>#__managed_style_0583769C8E40CFA4ACDC</styleUrl>
		<Point>
			<coordinates>-48.93604962892028,-26.30530456756172,23.3229388366961</coordinates>
		</Point>
	</Placemark>
	<Placemark id="09D93B8A3440CFA509C0">
		<name>Aerocircus Clube de Aeromodelismo</name>
		<LookAt>
			<longitude>-48.9371379</longitude>
			<latitude>-26.3032682</latitude>
			<altitude>0</altitude>
			<heading>0</heading>
			<tilt>0</tilt>
			<gx:fovy>35</gx:fovy>
			<range>935.3925946263378</range>
			<altitudeMode>relativeToGround</altitudeMode>
		</LookAt>
		<styleUrl>#__managed_style_0F2444CED840CFA513F8</styleUrl>
		<Point>
			<altitudeMode>relativeToGround</altitudeMode>
			<coordinates>-48.93713789999999,-26.3032682,0</coordinates>
		</Point>
	</Placemark>
</Document>
</kml>
